,name,grantee,centerType,phone,address,city,state_x,zip,0,1,state_y,county
0,Union Street Head Start/Early Head Start,"Crossroads Youth & Family Services, Inc.
Crossroads Head Start
1333 West Main Street
Norman, OK 73069-6864
(405)292-6440 - 340
",Head Start,(405) 214-4323,501 N Union Ave,Shawnee,OK,74801-7057,74801,7057,OK,Pottawatomie County
1,Neighborhood Head Start,"Crossroads Youth & Family Services, Inc.
Crossroads Head Start
1333 West Main Street
Norman, OK 73069-6864
(405)292-6440 - 340
",Head Start,(405) 275-9837,1002 W 7th St,Shawnee,OK,74801-7645,74801,7645,OK,Pottawatomie County
2,Moore Head Start,"Crossroads Youth & Family Services, Inc.
Crossroads Head Start
1333 West Main Street
Norman, OK 73069-6864
(405)292-6440 - 340
",Head Start,(405) 912-9993,312 N Janeway Ave,Moore,OK,73160-3918,73160,3918,OK,Cleveland County
3,Learning Tree HS - Shawnee,"Crossroads Youth & Family Services, Inc.
Crossroads Head Start
1333 West Main Street
Norman, OK 73069-6864
(405)292-6440 - 340
",Head Start,(405) 214-4446,1528 N McKinley Ave,Shawnee,OK,74801-5207,74801,5207,OK,Pottawatomie County
4,Beginnings Academy,"Crossroads Youth & Family Services, Inc.
Crossroads Head Start
1333 West Main Street
Norman, OK 73069-6864
(405)292-6440 - 340
",Head Start,(580) 354-9865,501 NW Woodridge Dr,Lawton,OK,73507-2265,73507,2265,OK,Comanche County
5,St Stephens Head Start,"Crossroads Youth & Family Services, Inc.
Crossroads Head Start
1333 West Main Street
Norman, OK 73069-6864
(405)292-6440 - 340
",Head Start,(405) 360-2124,1801 W Brooks St,Norman,OK,73069-4235,73069,4235,OK,Cleveland County
6,Maud Head Start,"Crossroads Youth & Family Services, Inc.
Crossroads Head Start
1333 West Main Street
Norman, OK 73069-6864
(405)292-6440 - 340
",Head Start,(405) 374-9085,310 West Young St,Maud,OK,74854-2017,74854,2017,OK,Seminole County
7,Bethel Head Start,"Crossroads Youth & Family Services, Inc.
Crossroads Head Start
1333 West Main Street
Norman, OK 73069-6864
(405)292-6440 - 340
",Head Start,(405) 275-2955,35500 Hardesty Rd,Shawnee,OK,74801-5667,74801,5667,OK,Pottawatomie County
8,Noble Head Start/Early Head Start,"Crossroads Youth & Family Services, Inc.
Crossroads Head Start
1333 West Main Street
Norman, OK 73069-6864
(405)292-6440 - 340
",Head Start,(405) 872-1713,204 N Main St,Noble,OK,73068-9350,73068,9350,OK,Cleveland County
9,Main Street Head Start,"Crossroads Youth & Family Services, Inc.
Crossroads Head Start
1333 West Main Street
Norman, OK 73069-6864
(405)292-6440 - 340
",Head Start,(405) 292-6440,1333 W Main St,Norman,OK,73069-6864,73069,6864,OK,Cleveland County
10,Little Axe Head Start,"Crossroads Youth & Family Services, Inc.
Crossroads Head Start
1333 West Main Street
Norman, OK 73069-6864
(405)292-6440 - 340
",Head Start,(405) 579-2352,1000 168th Ave NE,Norman,OK,73026-9200,73026,9200,OK,Cleveland County
11,Tecumseh Head Start,"Crossroads Youth & Family Services, Inc.
Crossroads Head Start
1333 West Main Street
Norman, OK 73069-6864
(405)292-6440 - 340
",Head Start,(405) 598-5114,515 N 3rd St,Tecumseh,OK,74873-2217,74873,2217,OK,Pottawatomie County
12,Midway Head Start,"Crossroads Youth & Family Services, Inc.
Crossroads Head Start
1333 West Main Street
Norman, OK 73069-6864
(405)292-6440 - 340
",Head Start,(580) 351-1099,1405 SW 11th St,Lawton,OK,73501-7304,73501,7304,OK,Comanche County
13,Treasured Moments EHS,"Crossroads Youth & Family Services, Inc.
Crossroads Early Head Start
1333 West Main Street
Norman, OK 73069-6864
(405)292-6440 - 340
",Early Head Start,(405) 214-4986,1111 N Kennedy Ave,Shawnee,OK,74801-4713,74801,4713,OK,Pottawatomie County
14,Seminole EHS,"Crossroads Youth & Family Services, Inc.
Crossroads Early Head Start
1333 West Main Street
Norman, OK 73069-6864
(405)292-6440 - 340
",Early Head Start,(405) 303-2224,542 W Strothers Ave,Seminole,OK,74868-3175,74868,3175,OK,Seminole County
15,Moore HS/EHS,"Crossroads Youth & Family Services, Inc.
Crossroads Early Head Start
1333 West Main Street
Norman, OK 73069-6864
(405)292-6440 - 340
",Early Head Start,(405) 912-9993,312 N Janeway Ave,Moore,OK,73160-3918,73160,3918,OK,Cleveland County
16,Baby Steps Early Head Start,"Crossroads Youth & Family Services, Inc.
Crossroads Early Head Start
1333 West Main Street
Norman, OK 73069-6864
(405)292-6440 - 340
",Early Head Start,(405) 360-2717,941 Nebraska St,Norman,OK,73069-6951,73069,6951,OK,Cleveland County
17,CSBI  HS/EHS,"Crossroads Youth & Family Services, Inc.
Crossroads Early Head Start
1333 West Main Street
Norman, OK 73069-6864
(405)292-6440 - 340
",Early Head Start,(405) 701-2141,1111 E Main St,Norman,OK,73071-5331,73071,5331,OK,Cleveland County
18,Learning Tree HS/EHS - Shawnee,"Crossroads Youth & Family Services, Inc.
Crossroads Early Head Start
1333 West Main Street
Norman, OK 73069-6864
(405)292-6440 - 340
",Early Head Start,(405) 214-4446,1528 N McKinley Ave,Shawnee,OK,74801-5207,74801,5207,OK,Pottawatomie County
19,First Start EHS,"Crossroads Youth & Family Services, Inc.
Crossroads Early Head Start
1333 West Main Street
Norman, OK 73069-6864
(405)292-6440 - 340
",Early Head Start,(580) 355-4333,2003 NW Lincoln Ave,Lawton,OK,73507-2840,73507,2840,OK,Comanche County
20,Childrens Chateau,"Crossroads Youth & Family Services, Inc.
Crossroads Early Head Start
1333 West Main Street
Norman, OK 73069-6864
(405)292-6440 - 340
",Early Head Start,(580) 355-4320,712 SW E Ave,Lawton,OK,73501-4514,73501,4514,OK,Comanche County
21,Summit Ridge Early Head Start,"Crossroads Youth & Family Services, Inc.
Crossroads Early Head Start
1333 West Main Street
Norman, OK 73069-6864
(405)292-6440 - 340
",Early Head Start,(580) 354-9199,501 NE Flower Mound Rd,Lawton,OK,73507-7230,73507,7230,OK,Comanche County
22,Frederick Head Start,"COMMUNITY ACTION DEVELOPMENT CORPORATION
400 N Randlett St
Hobart, OK 73651-1636
(580)726-3343
",Head Start,(580) 335-5644,521 E Gladstone Ave,Frederick,OK,73542-4437,73542,4437,OK,Tillman County
23,Waurika Head Start,"COMMUNITY ACTION DEVELOPMENT CORPORATION
400 N Randlett St
Hobart, OK 73651-1636
(580)726-3343
",Head Start,(580) 228-2810,803 Phillips Ave,Waurika,OK,73573-3422,73573,3422,OK,Jefferson County
24,Grandfield Head Start,"COMMUNITY ACTION DEVELOPMENT CORPORATION
400 N Randlett St
Hobart, OK 73651-1636
(580)726-3343
",Head Start,(580) 479-5273,416 S Main St,Grandfield,OK,73546-9440,73546,9440,OK,Tillman County
25,Burns Flat Dill City Head Start,"COMMUNITY ACTION DEVELOPMENT CORPORATION
400 N Randlett St
Hobart, OK 73651-1636
(580)726-3343
",Head Start,(580) 562-1776,"100 Cimarron Rd
# A",Burns Flat,OK,73624,73624,,OK,Washita County
26,Hobart Head Start,"COMMUNITY ACTION DEVELOPMENT CORPORATION
400 N Randlett St
Hobart, OK 73651-1636
(580)726-3343
",Head Start,(580) 726-3648,400B N Randlett St,Hobart,OK,73651-1636,73651,1636,OK,Kiowa County
27,Sentinel Head Start,"COMMUNITY ACTION DEVELOPMENT CORPORATION
400 N Randlett St
Hobart, OK 73651-1636
(580)726-3343
",Head Start,(580) 393-4303,114 S 3rd,Sentinel,OK,73664,73664,,OK,Washita County
28,Cordell Head Start,"COMMUNITY ACTION DEVELOPMENT CORPORATION
400 N Randlett St
Hobart, OK 73651-1636
(580)726-3343
",Head Start,(580) 832-2454,511 E Kiowa St,Cordell,OK,73632-6040,73632,6040,OK,Washita County
29,Ringling Head Start,"COMMUNITY ACTION DEVELOPMENT CORPORATION
400 N Randlett St
Hobart, OK 73651-1636
(580)726-3343
",Head Start,(580) 662-2987,Highway 89 Oak,Ringling,OK,73456,73456,,OK,Jefferson County
30,Erick Head Start,"COMMUNITY ACTION DEVELOPMENT CORPORATION
400 N Randlett St
Hobart, OK 73651-1636
(580)726-3343
",Head Start,(580) 526-3198,611 West Third Street,Erick,OK,73645,73645,,OK,Beckham County
31,Sayre Head Start,"COMMUNITY ACTION DEVELOPMENT CORPORATION
400 N Randlett St
Hobart, OK 73651-1636
(580)726-3343
",Head Start,(580) 928-5417,400 E Hannah,Sayre,OK,73662,73662,,OK,Beckham County
32,Hammon Head Start,"COMMUNITY ACTION DEVELOPMENT CORPORATION
400 N Randlett St
Hobart, OK 73651-1636
(580)726-3343
",Head Start,(580) 473-9110,8th and Shockey,Hammon,OK,73650,73650,,OK,Roger Mills County
33,Pauls Valley  Head Start,"DELTA COMMUNITY ACTION
308 SW 2nd Street
Lindsay, OK 73052-5404
(405)756-1100
",Head Start,(405) 238-3400,500 E Garvin Ave,Pauls Valley,OK,73075-4226,73075,4226,OK,Garvin County
34,Purcell Early Learning Center,"DELTA COMMUNITY ACTION
308 SW 2nd Street
Lindsay, OK 73052-5404
(405)756-1100
",Head Start,(405) 527-5551,715 S 4th Ave,Purcell,OK,73080-6422,73080,6422,OK,McClain County
35,Stratford Head Start,"DELTA COMMUNITY ACTION
308 SW 2nd Street
Lindsay, OK 73052-5404
(405)756-1100
",Head Start,(580) 759-2382,241 N Oak,Stratford,OK,74872-4436,74872,4436,OK,Garvin County
36,Lindsay Head Start/Early Head Start,"DELTA COMMUNITY ACTION
308 SW 2nd Street
Lindsay, OK 73052-5404
(405)756-1100
",Head Start,(405) 756-3513,14027 E County Road 1518,Lindsay,OK,73052-5404,73052,5404,OK,Garvin County
37,Maysville Head Start,"DELTA COMMUNITY ACTION
308 SW 2nd Street
Lindsay, OK 73052-5404
(405)756-1100
",Head Start,(405) 867-1297,"9 Williams
Corner of Williams and Oak",Maysville,OK,73057,73057,,OK,Garvin County
38,Blanchard Head Start,"DELTA COMMUNITY ACTION
308 SW 2nd Street
Lindsay, OK 73052-5404
(405)756-1100
",Head Start,(405) 485-3947,401 NE 5th Street,Blanchard,OK,73010,73010,,OK,McClain County
39,Duncan Irving Head Start/ Early Head Start,"DELTA COMMUNITY ACTION
308 SW 2nd Street
Lindsay, OK 73052-5404
(405)756-1100
",Head Start,(580) 255-5571,1200 W Sycamore Ave,Duncan,OK,73533-5023,73533,5023,OK,Stephens County
40,Purcell Early Learning Center,"Delta Community Action Foundation, Inc.
308 SW 2nd Street
Lindsay, OK 73052-
(405)756-1100
",Early Head Start,(405) 527-5551,715 S 4th Ave,Purcell,OK,73080-6422,73080,6422,OK,McClain County
41,Lindsay Head Start/Early Head Start,"Delta Community Action Foundation, Inc.
308 SW 2nd Street
Lindsay, OK 73052-
(405)756-1100
",Early Head Start,(405) 756-3513,14027 E County Road 1518,Lindsay,OK,73052-5404,73052,5404,OK,Garvin County
42,Duncan Irving Head Start/ Early Head Start,"Delta Community Action Foundation, Inc.
308 SW 2nd Street
Lindsay, OK 73052-
(405)756-1100
",Early Head Start,(580) 255-5571,1200 W Sycamore Ave,Duncan,OK,73533-5023,73533,5023,OK,Stephens County
43,Kickapoo Head Start,"Kickapoo Head Start
105365 South Highway 102
McLoud, OK 74851-
(405)964-3676
",American Indian and Alaska Native Head Start,(405) 964-3676,PO Box 399,McLoud,OK,74851-0399,74851,0399,OK,Pottawatomie County
44,Clinton HS & C C Facility,"CHEYENNE & ARAPAHO TRIBES OF OKLAHOMA
100 Red Moon Circle
Concho, OK 73022-
(405)422-7636
",American Indian and Alaska Native Head Start,(580) 323-1748,10333 N 2274 Rd,Clinton,OK,73601-7521,73601,7521,OK,Custer County
45,Canton,"CHEYENNE & ARAPAHO TRIBES OF OKLAHOMA
100 Red Moon Circle
Concho, OK 73022-
(405)422-7636
",American Indian and Alaska Native Head Start,(580) 886-2815,301 1/2 Lake Road,Canton,OK,73724,73724,,OK,Blaine County
46,Concho,"CHEYENNE & ARAPAHO TRIBES OF OKLAHOMA
100 Red Moon Circle
Concho, OK 73022-
(405)422-7636
",American Indian and Alaska Native Head Start,(405) 422-7647,201 Black Kettle Blvd,Concho,OK,73022,73022,,OK,Canadian County
47,"Emerson High School, OKCPS, Little Wonders Child Care Center","SUNBEAM FAMILY SERVICES, INC
1100 NW 14th St
Oklahoma City, OK 73106-4450
(405)528-7721
",Early Head Start,(405) 228-3242,715 N Walker Ave,Oklahoma City,OK,73102-1225,73102,1225,OK,Oklahoma County
48,Educare Oklahoma City,"SUNBEAM FAMILY SERVICES, INC
1100 NW 14th St
Oklahoma City, OK 73106-4450
(405)528-7721
",Early Head Start,(405) 605-8232,500 SE Grand Blvd,Oklahoma City,OK,73129-4948,73129,4948,OK,Oklahoma County
49,"Home-Based Program, Sunbeam Family Services Inc.","SUNBEAM FAMILY SERVICES, INC
1100 NW 14th St
Oklahoma City, OK 73106-4450
(405)528-7721
",Early Head Start,(405) 605-8232,616 NW 21st St,Oklahoma City,OK,73103-1899,73103,1899,OK,Oklahoma County
50,N'Darko Head Start Center,"CADDO NATION OF OKLAHOMA
237 Wichita Ln
Anadarko, OK 73005-3709
(405)656-2344
",American Indian and Alaska Native Head Start,(405) 247-6266,"237 Wichita Ln
1.5 Miles North on Highway 281",Anadarko,OK,73005-3709,73005,3709,OK,Caddo County
51,Binger-Oney Pre-K,"CADDO NATION OF OKLAHOMA
237 Wichita Ln
Anadarko, OK 73005-3709
(405)656-2344
",American Indian and Alaska Native Head Start,(405) 656-2304,"PO Box 280
300 S. Apache",Binger,OK,73009-0280,73009,0280,OK,Caddo County
52,Hasinai Head Start Center,"CADDO NATION OF OKLAHOMA
237 Wichita Ln
Anadarko, OK 73005-3709
(405)656-2344
",American Indian and Alaska Native Head Start,(405) 656-2353,"511 Memorial Lane
Jct Hwy 152 and Hwy 281",Binger,OK,73009,73009,,OK,Caddo County
53,Haskell Campus,"Green Country Behavioral Health Services, Inc.
619 N Main St
Muskogee, OK 74401-4431
(918)687-6611
",Head Start,(918) 482-5441,313 Chickasaw Road,Haskell,OK,74436,74436,,OK,Muskogee County
54,Warner Campus,"Green Country Behavioral Health Services, Inc.
619 N Main St
Muskogee, OK 74401-4431
(918)687-6611
",Head Start,(1) 918-463,"1012 5th Ave
Warner Public School",Warner,OK,74469-6900,74469,6900,OK,Muskogee County
55,East Campus,"Green Country Behavioral Health Services, Inc.
619 N Main St
Muskogee, OK 74401-4431
(918)687-6611
",Head Start,(1) 918-683,3900 Eufaula Ave,Muskogee,OK,74403-1129,74403,1129,OK,Muskogee County
56,Jamie Banks Robertson (JBR),"Green Country Behavioral Health Services, Inc.
619 N Main St
Muskogee, OK 74401-4431
(918)687-6611
",Head Start,(1) 918-682,540 S 3rd St,Muskogee,OK,74401-7820,74401,7820,OK,Muskogee County
57,Ft. Gibson Campus,"Green Country Behavioral Health Services, Inc.
619 N Main St
Muskogee, OK 74401-4431
(918)687-6611
",Head Start,(1) 918-478,"500 Ross Ave
Ft. Gibson Public School",Fort Gibson,OK,74434-8422,74434,8422,OK,Muskogee County
58,Youth Central,"Green Country Behavioral Health Services, Inc.
619 N Main St
Muskogee, OK 74401-4431
(918)687-6611
",Head Start,(1) 918-687,301 N 6th St,Muskogee,OK,74401-6008,74401,6008,OK,Muskogee County
59,Warner Campus,"Green Country Behavioral Health Services, Inc.
619 N Main St
Muskogee, OK 74401-4431
(918)687-6611
",Early Head Start,(1) 918-463,"1012 5th Ave
Warner Public School",Warner,OK,74469-6900,74469,6900,OK,Muskogee County
60,East Campus,"Green Country Behavioral Health Services, Inc.
619 N Main St
Muskogee, OK 74401-4431
(918)687-6611
",Early Head Start,(1) 918-683,3900 Eufaula Ave,Muskogee,OK,74403-1129,74403,1129,OK,Muskogee County
61,Jamie Banks Robertson (JBR),"Green Country Behavioral Health Services, Inc.
619 N Main St
Muskogee, OK 74401-4431
(918)687-6611
",Early Head Start,(1) 918-682,540 S 3rd St,Muskogee,OK,74401-7820,74401,7820,OK,Muskogee County
62,Ft. Gibson Campus,"Green Country Behavioral Health Services, Inc.
619 N Main St
Muskogee, OK 74401-4431
(918)687-6611
",Early Head Start,(1) 918-478,"500 Ross Ave
Ft. Gibson Public School",Fort Gibson,OK,74434-8422,74434,8422,OK,Muskogee County
63,Youth Central,"Green Country Behavioral Health Services, Inc.
619 N Main St
Muskogee, OK 74401-4431
(918)687-6611
",Early Head Start,(1) 918-687,301 N 6th St,Muskogee,OK,74401-6008,74401,6008,OK,Muskogee County
64,Shawnee Campus,"Green Country Behavioral Health Services, Inc.
619 N Main St
Muskogee, OK 74401-4431
(918)687-6611
",Early Head Start,(1) 918-682,2719 Old Shawnee,Muskogee,OK,74403,74403,,OK,Muskogee County
65,Comanche Head Start,"DELTA COMMUNITY ACTION
308 SW 2nd Street
Lindsay, OK 73052-5404
(405)756-1100
",Head Start,(580) 439-2900,1030 Ash Ave,Comanche,OK,73529-2636,73529,2636,OK,Stephens County
66,Iowa Tribe of Oklahoma Early Head Start,"IOWA TRIBE OF OKLAHOMA
335164 East 750 Rd
Perkins, OK 74059-
(405)547-2402
",American Indian and Alaska Native Head Start,(405) 547-5826,335164 E 750 Rd,Perkins,OK,74059-3276,74059,3276,OK,Payne County
67,Education Engine HS/EHS,"Crossroads Youth & Family Services, Inc.
Crossroads Head Start
1333 West Main Street
Norman, OK 73069-6864
(405)292-6440 - 340
",Head Start,(580) 248-0474,"2402 SW E Ave
Education Engine",Lawton,OK,73505-7332,73505,7332,OK,Comanche County
68,Northeast Oklahoma Community Action Early Head Start Program,"Northeast Oklahoma Community Action Agency, Inc.
856 E Melton Dr
Jay, OK 74346-2704
(918)253-4683 - 118
",Early Head Start,(918) 253-4683,1015 S Main St,Jay,OK,74346-3861,74346,3861,OK,Delaware County
69,Fairfax,"OSAGE NATION
1421 Grandview Ave
Pawhuska, OK 74056-1842
(918)287-5462
",American Indian and Alaska Native Head Start,(918) 287-5601,1000 West McKinley,Fairfax,OK,74637,74637,,OK,Osage County
70,Pawhuska,"OSAGE NATION
1421 Grandview Ave
Pawhuska, OK 74056-1842
(918)287-5462
",American Indian and Alaska Native Head Start,(918) 287-5460,P O 1389,Pawhuska,OK,74056,74056,,OK,Osage County
71,Skiatook,"OSAGE NATION
1421 Grandview Ave
Pawhuska, OK 74056-1842
(918)287-5462
",American Indian and Alaska Native Head Start,(918) 287-5471,"1801 W Oak St
Skiatook",Skiatook,OK,74070-4244,74070,4244,OK,Osage County
72,Hominy,"OSAGE NATION
1421 Grandview Ave
Pawhuska, OK 74056-1842
(918)287-5462
",American Indian and Alaska Native Head Start,(918) 287-5648,102 Buffalo Ave,Hominy,OK,74035-6784,74035,6784,OK,Osage County
73,Temple Head Start Cener,"COMMUNITY ACTION DEVELOPMENT CORPORATION
400 N Randlett St
Hobart, OK 73651-1636
(580)726-3343
",Head Start,(580) 342-5022,103 West Texas,Temple,OK,73568,73568,,OK,Cotton County
74,Frederick Head Start Center - Public School,"COMMUNITY ACTION DEVELOPMENT CORPORATION
400 N Randlett St
Hobart, OK 73651-1636
(580)726-3343
",Head Start,(580) 335-5713,213 S 13th St,Frederick,OK,73542-5802,73542,5802,OK,Tillman County
75,Colcord Head Start,"Grand Head Start (Jay Public Schools)
1115 S Main St
Jay, OK 74346-3848
(918)253-8650 - 207
",Head Start,(918) 326-4117,400 South Spencer Street,Colcord,OK,74338,74338,,OK,Delaware County
76,Commerce Head Start,"Grand Head Start (Jay Public Schools)
1115 S Main St
Jay, OK 74346-3848
(918)253-8650 - 207
",Head Start,(918) 675-5556,124 N Vine St,Commerce,OK,74339-1429,74339,1429,OK,Ottawa County
77,Grove Head Start,"Grand Head Start (Jay Public Schools)
1115 S Main St
Jay, OK 74346-3848
(918)253-8650 - 207
",Head Start,(918) 786-3119,802A W 7th St,Grove,OK,74344-3524,74344,3524,OK,Delaware County
78,Jay Head Start,"Grand Head Start (Jay Public Schools)
1115 S Main St
Jay, OK 74346-3848
(918)253-8650 - 207
",Head Start,(918) 253-8285,1104 W Washbourne,Jay,OK,74346,74346,,OK,Delaware County
79,Jay Elementary Head Start,"Grand Head Start (Jay Public Schools)
1115 S Main St
Jay, OK 74346-3848
(918)253-8650 - 207
",Head Start,(918) 253-4413,403 N Main St,Jay,OK,74346,74346,,OK,Delaware County
80,Miami Head Start,"Grand Head Start (Jay Public Schools)
1115 S Main St
Jay, OK 74346-3848
(918)253-8650 - 207
",Head Start,(918) 542-9642,1530 H St NW,Miami,OK,74354-1747,74354,1747,OK,Ottawa County
81,Quapaw Head Start,"Grand Head Start (Jay Public Schools)
1115 S Main St
Jay, OK 74346-3848
(918)253-8650 - 207
",Head Start,(918) 674-2700,310 McDonald Ave,Quapaw,OK,74363,74363,,OK,Ottawa County
82,Vinita Head Start,"Grand Head Start (Jay Public Schools)
1115 S Main St
Jay, OK 74346-3848
(918)253-8650 - 207
",Head Start,(918) 256-7296,302 S 2nd St,Vinita,OK,74301-4212,74301,4212,OK,Craig County
83,Kansas Head Start,"Grand Head Start (Jay Public Schools)
1115 S Main St
Jay, OK 74346-3848
(918)253-8650 - 207
",Head Start,(918) 256-7296,275 W Main St,Kansas,OK,74347-4700,74347,4700,OK,Delaware County
84,NACT Mark Twain,"NATIVE AMERICAN COALITION OF TULSA
4935 S Union Ave
Tulsa, OK 74107-7839
(918)446-7939
",Head Start,(918) 833-8820,541 S 43rd West Ave,Tulsa,OK,74127-7740,74127,7740,OK,Tulsa County
85,NACT Head Start West Campus,"NATIVE AMERICAN COALITION OF TULSA
4935 S Union Ave
Tulsa, OK 74107-7839
(918)446-7939
",Head Start,(918) 446-7939,4935 S Union Ave,Tulsa,OK,74107-7839,74107,7839,OK,Tulsa County
86,NACT Head Start Glenpool,"NATIVE AMERICAN COALITION OF TULSA
4935 S Union Ave
Tulsa, OK 74107-7839
(918)446-7939
",Head Start,(918) 321-2649,14100 S Hickory St,Glenpool,OK,74033-3634,74033,3634,OK,Tulsa County
87,NACT Head Start  Campus 97,"NATIVE AMERICAN COALITION OF TULSA
4935 S Union Ave
Tulsa, OK 74107-7839
(918)446-7939
",Head Start,(918) 514-4327,5550 S Highway 97,Sand Springs,OK,74063-3711,74063,3711,OK,Tulsa County
88,Eufaula,"Muscogee (Creek) Nation Head Start
1820 North Miami Avenue
Okmulgee, OK 74447-
(918)732-7901
",American Indian and Alaska Native Head Start,(918) 618-6220,320 Swadley Dr,Eufaula,OK,74432-2229,74432,2229,OK,McIntosh County
89,Wetumka,"Muscogee (Creek) Nation Head Start
1820 North Miami Avenue
Okmulgee, OK 74447-
(918)732-7901
",American Indian and Alaska Native Head Start,(405) 452-1180,333 S Washita St,Wetumka,OK,74883-5522,74883,5522,OK,Hughes County
90,Okmulgee,"Muscogee (Creek) Nation Head Start
1820 North Miami Avenue
Okmulgee, OK 74447-
(918)732-7901
",American Indian and Alaska Native Head Start,(918) 758-1430,1810 N Miami Street,Okmulgee,OK,74447,74447,,OK,Okmulgee County
91,Tulsa,"Muscogee (Creek) Nation Head Start
1820 North Miami Avenue
Okmulgee, OK 74447-
(918)732-7901
",American Indian and Alaska Native Head Start,(918) 296-0357,8601 S Union Ave,Tulsa,OK,74132-3609,74132,3609,OK,Tulsa County
92,Checotah,"Muscogee (Creek) Nation Head Start
1820 North Miami Avenue
Okmulgee, OK 74447-
(918)732-7901
",American Indian and Alaska Native Head Start,(918) 473-0605,302 B St,Checotah,OK,74426-5226,74426,5226,OK,McIntosh County
93,Okemah,"Muscogee (Creek) Nation Head Start
1820 North Miami Avenue
Okmulgee, OK 74447-
(918)732-7901
",American Indian and Alaska Native Head Start,(918) 623-2000,103 Hiyak PO St,Okemah,OK,74859-4804,74859,4804,OK,Okfuskee County
94,Midway Public School Collaboration,"Muscogee (Creek) Nation Head Start
1820 North Miami Avenue
Okmulgee, OK 74447-
(918)732-7901
",American Indian and Alaska Native Head Start,(918) 474-3434,3016 S Pine,Council Hill,OK,74428,74428,,OK,McIntosh County
95,Wainwright Public School,"Muscogee (Creek) Nation Head Start
1820 North Miami Avenue
Okmulgee, OK 74447-
(918)732-7901
",American Indian and Alaska Native Head Start,(918) 474-3484,"PO Box 189
1 School Street",Wainwright,OK,74468-0189,74468,0189,OK,Muskogee County
96,Dewar Public School Collaboration,"Muscogee (Creek) Nation Head Start
1820 North Miami Avenue
Okmulgee, OK 74447-
(918)732-7901
",American Indian and Alaska Native Head Start,(918) 652-9625,204 W 5th Street,Dewar,OK,74431-0780,74431,0780,OK,Okmulgee County
97,Educare I-Kendall Whittier,"Tulsa Educare, Inc.
2511 E 5th Pl
Tulsa, OK 74104-2804
(539)832-8200
",Early Head Start,(918) 779-6233,2511 E 5th Pl,Tulsa,OK,74104-2804,74104,2804,OK,Tulsa County
98,Little Rabbits Head Start Center,"KIOWA TRIBE (ONAP)
Highway 9 West
100 Kiowa Way
Carnegie, OK 73015-
(580)654-6393
",American Indian and Alaska Native Head Start,(405) 247-3740,1602 American St,Anadarko,OK,73005-2314,73005,2314,OK,Caddo County
99,Kiowa Tribe Head Start-Carnegie Center,"KIOWA TRIBE (ONAP)
Highway 9 West
100 Kiowa Way
Carnegie, OK 73015-
(580)654-6393
",American Indian and Alaska Native Head Start,(580) 654-6391,"Hwy 9 W.
100 Kiowa Way",Carnegie,OK,73015,73015,,OK,Caddo County
100,KCA Head Start Center,"KIOWA TRIBE (ONAP)
Highway 9 West
100 Kiowa Way
Carnegie, OK 73015-
(580)654-6393
",American Indian and Alaska Native Head Start,(580) 354-1412,1401 NE Lawrie Tatum Rd,Lawton,OK,73507-3008,73507,3008,OK,Comanche County
101,Caddo-Kiowa Technology Center,"KIOWA TRIBE (ONAP)
Highway 9 West
100 Kiowa Way
Carnegie, OK 73015-
(580)654-6393
",American Indian and Alaska Native Head Start,(405) 643-3248,1415 N 7th,Fort Cobb,OK,73038,73038,,OK,Caddo County
102,Educare 2-Hawthorne,"Tulsa Educare, Inc.
2190 S 67th East Ave
Tulsa, OK 74129-2008
(539)832-8200
",Early Head Start,(918) 508-2250,3420 N Peoria Ave,Tulsa,OK,74106-2000,74106,2000,OK,Tulsa County
103,Educare 3-MacArthur,"Tulsa Educare, Inc.
2190 S 67th East Ave
Tulsa, OK 74129-2008
(539)832-8200
",Early Head Start,(539) 832-8200,2190 S 67th East Ave,Tulsa,OK,74129-2008,74129,2008,OK,Tulsa County
104,Happy Hands Educational Center,"Tulsa Educare, Inc.
2190 S 67th East Ave
Tulsa, OK 74129-2008
(539)832-8200
",Early Head Start,(918) 893-4800,8801 S Garnett Rd,Broken Arrow,OK,74012-6002,74012,6002,OK,Tulsa County
105,Kingston Head Start,"INCA COMMUNITY SERVICES, INC
202 S Capital Ave
Tishomingo, OK 73460-1605
(580)371-2352 - 258
",Head Start,(1) 580-564,"100 NE 4th St
Kingston Public School",Kingston,OK,73439-1139,73439,1139,OK,Marshall County
106,WAPANUCKA HEAD START,"INCA COMMUNITY SERVICES, INC
202 S Capital Ave
Tishomingo, OK 73460-1605
(580)371-2352 - 258
",Head Start,(1) 580-937,502 S Choctaw Ave,Wapanucka,OK,73461-9235,73461,9235,OK,Johnston County
107,MADILL #1,"INCA COMMUNITY SERVICES, INC
202 S Capital Ave
Tishomingo, OK 73460-1605
(580)371-2352 - 258
",Head Start,(1) 580-795,211 N 2nd St,Madill,OK,73446-2207,73446,2207,OK,Marshall County
108,Sulphur HEAD START,"INCA COMMUNITY SERVICES, INC
202 S Capital Ave
Tishomingo, OK 73460-1605
(580)371-2352 - 258
",Head Start,(1) 580-622,1220 W 9th St,Sulphur,OK,73086-3612,73086,3612,OK,Murray County
109,Caney Head Start,"INCA COMMUNITY SERVICES, INC
202 S Capital Ave
Tishomingo, OK 73460-1605
(580)371-2352 - 258
",Head Start,(1) 580-889,"301 N Cobb Ave
402 N Perkins",Caney,OK,74533,74533,,OK,Atoka County
110,MILL CREEK HEAD START,"INCA COMMUNITY SERVICES, INC
202 S Capital Ave
Tishomingo, OK 73460-1605
(580)371-2352 - 258
",Head Start,(1) 580-384,"P. O. 201
603 South Choctaw",Mill Creek,OK,74856,74856,,OK,Johnston County
111,Milburn Head Start,"INCA COMMUNITY SERVICES, INC
202 S Capital Ave
Tishomingo, OK 73460-1605
(580)371-2352 - 258
",Head Start,(1) 580-5487,200 N 7th St,Milburn,OK,73450-9645,73450,9645,OK,Johnston County
112,TISHOMINGO HEAD START,"INCA COMMUNITY SERVICES, INC
202 S Capital Ave
Tishomingo, OK 73460-1605
(580)371-2352 - 258
",Head Start,(1) 580-371,304 W 7th St,Tishomingo,OK,73460-1209,73460,1209,OK,Johnston County
113,Kingston Head Start,"INCA COMMUNITY SERVICES, INC
202 S Capital Ave
Tishomingo, OK 73460-1605
(580)371-2352 - 258
",Head Start,(1) 580-564,100 NE 4th St,Kingston,OK,73439-1139,73439,1139,OK,Marshall County
114,Davis Head Start,"INCA COMMUNITY SERVICES, INC
202 S Capital Ave
Tishomingo, OK 73460-1605
(580)371-2352 - 258
",Head Start,(1) 580-369,"701 East Benton
701 East Benton",Davis,OK,73030-1964,73030,1964,OK,Murray County
115,Atoka Head Start,"INCA COMMUNITY SERVICES, INC
202 S Capital Ave
Tishomingo, OK 73460-1605
(580)371-2352 - 258
",Head Start,(1) 580-889,301 W 10th St,Atoka,OK,74525-2800,74525,2800,OK,Atoka County
116,Oakland Head Start,"INCA COMMUNITY SERVICES, INC
202 S Capital Ave
Tishomingo, OK 73460-1605
(580)371-2352 - 258
",Head Start,(1) 580-677,"18941 8th St
Highway 70",Madill,OK,73446-2155,73446,2155,OK,Marshall County
117,Oakland,"INCA COMMUNITY SERVICES, INC
202 S Capital Ave
Tishomingo, OK 73460-1605
(580)371-2352 - 258
",Head Start,(580) 677-9444,18941 8th St,Madill,OK,73446-2155,73446,2155,OK,Marshall County
118,Mannsville INCA Head Start,"INCA COMMUNITY SERVICES, INC
202 S Capital Ave
Tishomingo, OK 73460-1605
(580)371-2352 - 258
",Head Start,(580) 371-2892,509 East School Street,Mannsville,OK,73447,73447,,OK,Johnston County
119,Mekusukey Mission Center,"SEMINOLE NATION OF OKLAHOMA
36645 Highway 270
Wewoka, OK 74884-4021
(405)234-5228
",American Indian and Alaska Native Head Start,(405) 382-6126,12572 NS 354,Seminole,OK,74868,74868,,OK,Seminole County
120,Barking Water Center,"SEMINOLE NATION OF OKLAHOMA
36645 Highway 270
Wewoka, OK 74884-4021
(405)234-5228
",American Indian and Alaska Native Head Start,(405) 257-7220,Intersection Hwy 56 & Hwy 270,Wewoka,OK,74884,74884,,OK,Seminole County
121,Konawa Center,"SEMINOLE NATION OF OKLAHOMA
36645 Highway 270
Wewoka, OK 74884-4021
(405)234-5228
",American Indian and Alaska Native Head Start,(580) 925-5750,Intersection Hwy 39 & Hwy 99,Konawa,OK,74849,74849,,OK,Seminole County
122,Mekusukey Mission Center,"SEMINOLE NATION OF OKLAHOMA
36645 Hwy 270
Wewoka, OK 74884-
(405)234-5228
",American Indian and Alaska Native Head Start,(405) 382-6126,12572 NS 354,Seminole,OK,74868,74868,,OK,Seminole County
123,Konawa Center,"SEMINOLE NATION OF OKLAHOMA
36645 Hwy 270
Wewoka, OK 74884-
(405)234-5228
",American Indian and Alaska Native Head Start,(580) 925-5750,Intersection Hwy 39 & Hwy 99,Konawa,OK,74849,74849,,OK,Seminole County
124,Barking Water Center,"SEMINOLE NATION OF OKLAHOMA
36645 Hwy 270
Wewoka, OK 74884-
(405)234-5228
",American Indian and Alaska Native Head Start,(405) 257-7220,Intersection Hwy 56 & Hwy 270,Wewoka,OK,74884,74884,,OK,Seminole County
125,Mekusukey Mission 2,"SEMINOLE NATION OF OKLAHOMA
36645 Hwy 270
Wewoka, OK 74884-
(405)234-5228
",American Indian and Alaska Native Head Start,(405) 382-4186,12556 NS 354,Seminole,OK,74868,74868,,OK,Seminole County
126,Lookeba,"WASHITA VALLEY COMMUNITY ACTION COUNCIL, INC
1000 W Minnesota Ave
Chickasha, OK 73018-3254
(405)224-5831 - 115
",Head Start,(405) 457-6493,West Sickles Avenue,Lookeba,OK,73053,73053,,OK,Caddo County
127,Apache,"WASHITA VALLEY COMMUNITY ACTION COUNCIL, INC
1000 W Minnesota Ave
Chickasha, OK 73018-3254
(405)224-5831 - 115
",Head Start,(580) 588-2270,"Apache Elementary School
South Forrest",Apache,OK,73006,73006,,OK,Caddo County
128,Chickasha Head Start,"WASHITA VALLEY COMMUNITY ACTION COUNCIL, INC
1000 W Minnesota Ave
Chickasha, OK 73018-3254
(405)224-5831 - 115
",Head Start,(405) 222-0172,1000 W Minnesota Ave,Chickasha,OK,73018-3254,73018,3254,OK,Grady County
129,Anadarko Head Start/EHS,"WASHITA VALLEY COMMUNITY ACTION COUNCIL, INC
1000 W Minnesota Ave
Chickasha, OK 73018-3254
(405)224-5831 - 115
",Head Start,(405) 247-6745,315 NE 3rd St,Anadarko,OK,73005-2621,73005,2621,OK,Caddo County
130,Ninnekah,"WASHITA VALLEY COMMUNITY ACTION COUNCIL, INC
1000 W Minnesota Ave
Chickasha, OK 73018-3254
(405)224-5831 - 115
",Head Start,(405) 222-0420,810 Dell Street,Ninnekah,OK,73067,73067,,OK,Grady County
131,Cyril,"WASHITA VALLEY COMMUNITY ACTION COUNCIL, INC
1000 W Minnesota Ave
Chickasha, OK 73018-3254
(405)224-5831 - 115
",Head Start,(405) 464-3705,208 W Main,Cyril,OK,73029,73029,,OK,Caddo County
132,Fort Cobb Head Start/EHS,"WASHITA VALLEY COMMUNITY ACTION COUNCIL, INC
1000 W Minnesota Ave
Chickasha, OK 73018-3254
(405)224-5831 - 115
",Head Start,(405) 654-5314,100 Career Tech Road,Fort Cobb,OK,73038,73038,,OK,Caddo County
133,Fort Cobb Head Start/EHS,"WASHITA VALLEY COMMUNITY ACTION COUNCIL, INC
1000 W Minnesota Ave
Chickasha, OK 73018-3254
(405)224-5831 - 115
",Early Head Start,(405) 643-5511,100 Career Tech Road,Fort Cobb,OK,73038,73038,,OK,Caddo County
134,Chickasha EHS,"WASHITA VALLEY COMMUNITY ACTION COUNCIL, INC
1000 W Minnesota Ave
Chickasha, OK 73018-3254
(405)224-5831 - 115
",Early Head Start,(405) 224-3471,1304 S 6th St,Chickasha,OK,73018-4669,73018,4669,OK,Grady County
135,Pregnant Moms,"WASHITA VALLEY COMMUNITY ACTION COUNCIL, INC
1000 W Minnesota Ave
Chickasha, OK 73018-3254
(405)224-5831 - 115
",Early Head Start,(405) 224-5831,1000 W Minnesota Ave,Chickasha,OK,73018-3254,73018,3254,OK,Grady County
136,Carnegie EHS,"WASHITA VALLEY COMMUNITY ACTION COUNCIL, INC
1000 W Minnesota Ave
Chickasha, OK 73018-3254
(405)224-5831 - 115
",Early Head Start,(405) 654-1510,511 Town East 1st St,Carnegie,OK,73015-9040,73015,9040,OK,Caddo County
137,Anadarko Head Start/EHS,"WASHITA VALLEY COMMUNITY ACTION COUNCIL, INC
1000 W Minnesota Ave
Chickasha, OK 73018-3254
(405)224-5831 - 115
",Early Head Start,(405) 247-6745,315 NE 3rd St,Anadarko,OK,73005-2621,73005,2621,OK,Caddo County
138,Rockwood Elementary Head Start,"CMTY ACTION AGCY OF OK CY & CTY & OK/CANADIAN CTYS INC
319 SW 25th St
Oklahoma City, OK 73109-5921
(405)232-0199 - 4103
",Head Start,(405) 587-1518,3101 SW 24th St,Oklahoma City,OK,73108-5236,73108,5236,OK,Oklahoma County
139,Steed Head Start,"CMTY ACTION AGCY OF OK CY & CTY & OK/CANADIAN CTYS INC
319 SW 25th St
Oklahoma City, OK 73109-5921
(405)232-0199 - 4103
",Head Start,(405) 732-2552,2118 Flannery Dr,Midwest City,OK,73110-7912,73110,7912,OK,Oklahoma County
140,Metro Tech Head Start,"CMTY ACTION AGCY OF OK CY & CTY & OK/CANADIAN CTYS INC
319 SW 25th St
Oklahoma City, OK 73109-5921
(405)232-0199 - 4103
",Head Start,(405) 595-4750,3901 N Martin Luther King Ave,Oklahoma City,OK,73111-5221,73111,5221,OK,Oklahoma County
141,Mark Twain Elementary,"CMTY ACTION AGCY OF OK CY & CTY & OK/CANADIAN CTYS INC
319 SW 25th St
Oklahoma City, OK 73109-5921
(405)232-0199 - 4103
",Head Start,(405) 232-2006,2412 W Main St,Oklahoma City,OK,73107-6956,73107,6956,OK,Oklahoma County
142,Valley Brook Head Start,"CMTY ACTION AGCY OF OK CY & CTY & OK/CANADIAN CTYS INC
319 SW 25th St
Oklahoma City, OK 73109-5921
(405)232-0199 - 4103
",Head Start,(405) 670-6284,6315 Camille Ave,Oklahoma City,OK,73149-5113,73149,5113,OK,Oklahoma County
143,McKinley Head Start,"CMTY ACTION AGCY OF OK CY & CTY & OK/CANADIAN CTYS INC
319 SW 25th St
Oklahoma City, OK 73109-5921
(405)232-0199 - 4103
",Head Start,(405) 524-5017,1300 N McKinley Ave,Oklahoma City,OK,73106-4670,73106,4670,OK,Oklahoma County
144,Armstrong Head Start,"CMTY ACTION AGCY OF OK CY & CTY & OK/CANADIAN CTYS INC
319 SW 25th St
Oklahoma City, OK 73109-5921
(405)232-0199 - 4103
",Head Start,(405) 277-3530,309 SW 5th Street,Luther,OK,73054,73054,,OK,Oklahoma County
145,Avery Head Start,"CMTY ACTION AGCY OF OK CY & CTY & OK/CANADIAN CTYS INC
319 SW 25th St
Oklahoma City, OK 73109-5921
(405)232-0199 - 4103
",Head Start,(405) 424-1088,1425 N Kelham Ave,Oklahoma City,OK,73117-3635,73117,3635,OK,Oklahoma County
146,Will Rogers Head Start,"CMTY ACTION AGCY OF OK CY & CTY & OK/CANADIAN CTYS INC
319 SW 25th St
Oklahoma City, OK 73109-5921
(405)232-0199 - 4103
",Head Start,(405) 634-4365,1621 SW 15th St,Oklahoma City,OK,73108-6803,73108,6803,OK,Oklahoma County
147,Oak Grove Head Start,"CMTY ACTION AGCY OF OK CY & CTY & OK/CANADIAN CTYS INC
319 SW 25th St
Oklahoma City, OK 73109-5921
(405)232-0199 - 4103
",Head Start,(405) 685-2277,3301 SW 17th St,Oklahoma City,OK,73108-4000,73108,4000,OK,Oklahoma County
148,New Heights Head Start,"CMTY ACTION AGCY OF OK CY & CTY & OK/CANADIAN CTYS INC
319 SW 25th St
Oklahoma City, OK 73109-5921
(405)232-0199 - 4103
",Head Start,(405) 440-0230,7921 NW 23rd St,Bethany,OK,73008-4949,73008,4949,OK,Oklahoma County
149,Mt Rose Head Start,"CMTY ACTION AGCY OF OK CY & CTY & OK/CANADIAN CTYS INC
319 SW 25th St
Oklahoma City, OK 73109-5921
(405)232-0199 - 4103
",Head Start,(405) 232-6037,1701 NW 7th St,Oklahoma City,OK,73106-2403,73106,2403,OK,Oklahoma County
150,Edmond Head Start,"CMTY ACTION AGCY OF OK CY & CTY & OK/CANADIAN CTYS INC
319 SW 25th St
Oklahoma City, OK 73109-5921
(405)232-0199 - 4103
",Head Start,(405) 359-7155,717 Churchill Rd,Edmond,OK,73034-5016,73034,5016,OK,Oklahoma County
151,Capitol Hill Elementary Head Start,"CMTY ACTION AGCY OF OK CY & CTY & OK/CANADIAN CTYS INC
319 SW 25th St
Oklahoma City, OK 73109-5921
(405)232-0199 - 4103
",Head Start,(405) 587-1847,2717 S Robinson Ave,Oklahoma City,OK,73109-6234,73109,6234,OK,Oklahoma County
152,Wheeler Head Start,"CMTY ACTION AGCY OF OK CY & CTY & OK/CANADIAN CTYS INC
319 SW 25th St
Oklahoma City, OK 73109-5921
(405)232-0199 - 4103
",Head Start,(405) 587-7027,501 SE 25th St,Oklahoma City,OK,73129-4726,73129,4726,OK,Oklahoma County
153,Garden Diggs Head Start,"CMTY ACTION AGCY OF OK CY & CTY & OK/CANADIAN CTYS INC
319 SW 25th St
Oklahoma City, OK 73109-5921
(405)232-0199 - 4103
",Head Start,(405) 427-8515,2201 N Coltrane Rd,Oklahoma City,OK,73121-4622,73121,4622,OK,Oklahoma County
154,Carver Mark Twain Head Start,"CMTY ACTION AGCY OF OK CY & CTY & OK/CANADIAN CTYS INC
319 SW 25th St
Oklahoma City, OK 73109-5921
(405)232-0199 - 4103
",Head Start,(405) 232-2006,2412 W Main St,Oklahoma City,OK,73107-6956,73107,6956,OK,Oklahoma County
155,Happy Times Head Start,"CMTY ACTION AGCY OF OK CY & CTY & OK/CANADIAN CTYS INC
319 SW 25th St
Oklahoma City, OK 73109-5921
(405)232-0199 - 4103
",Head Start,(405) 733-2905,405 S Air Depot Blvd,Midwest City,OK,73110-4434,73110,4434,OK,Oklahoma County
156,Mary Helen Nelson Head Start,"CMTY ACTION AGCY OF OK CY & CTY & OK/CANADIAN CTYS INC
319 SW 25th St
Oklahoma City, OK 73109-5921
(405)232-0199 - 4103
",Head Start,(405) 232-2920,1115 NE 7th St,Oklahoma City,OK,73117-1423,73117,1423,OK,Oklahoma County
157,Buchanan Elementary  Head Start,"CMTY ACTION AGCY OF OK CY & CTY & OK/CANADIAN CTYS INC
319 SW 25th St
Oklahoma City, OK 73109-5921
(405)232-0199 - 4103
",Head Start,(405) 587-4744,4126 NW 18th St,Oklahoma City,OK,73107-3624,73107,3624,OK,Oklahoma County
158,Plainview Head Start,"CMTY ACTION AGCY OF OK CY & CTY & OK/CANADIAN CTYS INC
319 SW 25th St
Oklahoma City, OK 73109-5921
(405)232-0199 - 4103
",Head Start,(405) 843-8299,7105 N Kelley Ave,Oklahoma City,OK,73111-8426,73111,8426,OK,Oklahoma County
159,Dana Brown Cooper Head Start,"CMTY ACTION AGCY OF OK CY & CTY & OK/CANADIAN CTYS INC
319 SW 25th St
Oklahoma City, OK 73109-5921
(405)232-0199 - 4103
",Head Start,(405) 733-0289,9300 NE 10th St,Midwest City,OK,73130-1320,73130,1320,OK,Oklahoma County
160,Kaiser Elementary Head Start,"CMTY ACTION AGCY OF OK CY & CTY & OK/CANADIAN CTYS INC
319 SW 25th St
Oklahoma City, OK 73109-5921
(405)232-0199 - 4103
",Head Start,(405) 587-3621,3101 Lyon Blvd,Oklahoma City,OK,73112-3333,73112,3333,OK,Oklahoma County
161,Kiddie Village Head Start,"CMTY ACTION AGCY OF OK CY & CTY & OK/CANADIAN CTYS INC
319 SW 25th St
Oklahoma City, OK 73109-5921
(405)232-0199 - 4103
",Head Start,(405) 235-9833,801 NE 2nd St,Oklahoma City,OK,73104-6613,73104,6613,OK,Oklahoma County
162,West Oak Head Start,"CMTY ACTION AGCY OF OK CY & CTY & OK/CANADIAN CTYS INC
319 SW 25th St
Oklahoma City, OK 73109-5921
(405)232-0199 - 4103
",Head Start,(405) 677-8437,2100 S Everest Ave,Oklahoma City,OK,73129-6348,73129,6348,OK,Oklahoma County
163,Ruth Dropkin Head Start,"CMTY ACTION AGCY OF OK CY & CTY & OK/CANADIAN CTYS INC
319 SW 25th St
Oklahoma City, OK 73109-5921
(405)232-0199 - 4103
",Head Start,(405) 634-0401,6500 S Shields Blvd,Oklahoma City,OK,73149-1312,73149,1312,OK,Oklahoma County
164,Our Spot Head Start,"CMTY ACTION AGCY OF OK CY & CTY & OK/CANADIAN CTYS INC
319 SW 25th St
Oklahoma City, OK 73109-5921
(405)232-0199 - 4103
",Head Start,(405) 755-5136,1532 W Hefner Rd,Oklahoma City,OK,73120-7942,73120,7942,OK,Oklahoma County
165,FD Moon Academy Head Start,"CMTY ACTION AGCY OF OK CY & CTY & OK/CANADIAN CTYS INC
319 SW 25th St
Oklahoma City, OK 73109-5921
(405)232-0199 - 4103
",Head Start,(405) 427-8391,1901 NE 13th St,Oklahoma City,OK,73117-3613,73117,3613,OK,Oklahoma County
166,Green Pastures Elementary Head Start,"CMTY ACTION AGCY OF OK CY & CTY & OK/CANADIAN CTYS INC
319 SW 25th St
Oklahoma City, OK 73109-5921
(405)232-0199 - 4103
",Head Start,(405) 587-4539,4300 N Post Rd,Spencer,OK,73084-4216,73084,4216,OK,Oklahoma County
167,Central Oak Elementary Head Start,"CMTY ACTION AGCY OF OK CY & CTY & OK/CANADIAN CTYS INC
319 SW 25th St
Oklahoma City, OK 73109-5921
(405)232-0199 - 4103
",Head Start,(405) 677-5211,1450 S Eastern Ave,Oklahoma City,OK,73129-6035,73129,6035,OK,Oklahoma County
168,Educare,"Sunbeam Family Services, Inc.
500 SE Grand
Oklahoma City, OK 73129-
(405)528-7721
",Head Start,(405) 605-8232,"500
SE Grand Blvd",Oklahoma City,OK,73129,73129,,OK,Oklahoma County
169,HARTSHORNE,"KI BOIS COMMUNITY ACTION FOUNDATION, INC
200 SE A St
Stigler, OK 74462-2418
(918)967-3325
",Head Start,(918) 297-2027,307 S 12th St,Hartshorne,OK,74547-4401,74547,4401,OK,Pittsburg County
170,PANAMA,"KI BOIS COMMUNITY ACTION FOUNDATION, INC
200 SE A St
Stigler, OK 74462-2418
(918)967-3325
",Head Start,(918) 963-2657,410 Missouri,Panama,OK,74951,74951,,OK,Le Flore County
171,POCOLA,"KI BOIS COMMUNITY ACTION FOUNDATION, INC
200 SE A St
Stigler, OK 74462-2418
(918)967-3325
",Head Start,(918) 436-2551,103 S. Pocola Blvd,Pocola,OK,74902,74902,,OK,Le Flore County
172,WISTER,"KI BOIS COMMUNITY ACTION FOUNDATION, INC
200 SE A St
Stigler, OK 74462-2418
(918)967-3325
",Head Start,(918) 655-7797,210 Logan St,Wister,OK,74966-9627,74966,9627,OK,Le Flore County
173,MCALESTER--JEFFERSON,"KI BOIS COMMUNITY ACTION FOUNDATION, INC
200 SE A St
Stigler, OK 74462-2418
(918)967-3325
",Head Start,(918) 423-8304,501 S C St,McAlester,OK,74501-5713,74501,5713,OK,Pittsburg County
174,MCCURTAIN,"KI BOIS COMMUNITY ACTION FOUNDATION, INC
200 SE A St
Stigler, OK 74462-2418
(918)967-3325
",Head Start,(918) 945-7357,West 3rd Ave,McCurtain,OK,74944,74944,,OK,Haskell County
175,ARKOMA,"KI BOIS COMMUNITY ACTION FOUNDATION, INC
200 SE A St
Stigler, OK 74462-2418
(918)967-3325
",Head Start,(918) 875-3687,314 State Line Rd,Arkoma,OK,74901-3571,74901,3571,OK,Le Flore County
176,POTEAU,"KI BOIS COMMUNITY ACTION FOUNDATION, INC
200 SE A St
Stigler, OK 74462-2418
(918)967-3325
",Head Start,(918) 647-7785,407 Hughes Dr,Poteau,OK,74953-5437,74953,5437,OK,Le Flore County
177,KEOTA,"KI BOIS COMMUNITY ACTION FOUNDATION, INC
200 SE A St
Stigler, OK 74462-2418
(918)967-3325
",Head Start,(918) 966-3770,308 E Main St,Keota,OK,74941-6656,74941,6656,OK,Haskell County
178,STIGLER EAST,"KI BOIS COMMUNITY ACTION FOUNDATION, INC
200 SE A St
Stigler, OK 74462-2418
(918)967-3325
",Head Start,(918) 967-8471,1302 E Central Ave,Stigler,OK,74462-2595,74462,2595,OK,Haskell County
179,HEAVENER,"KI BOIS COMMUNITY ACTION FOUNDATION, INC
200 SE A St
Stigler, OK 74462-2418
(918)967-3325
",Head Start,(918) 653-3517,500 W 2nd St,Heavener,OK,74937-3002,74937,3002,OK,Le Flore County
180,CASC - POTEAU,"KI BOIS COMMUNITY ACTION FOUNDATION, INC
200 SE A St
Stigler, OK 74462-2418
(918)967-3325
",Head Start,(918) 647-1258,1507 S McKenna St,Poteau,OK,74953-5207,74953,5207,OK,Le Flore County
181,FORT COFFEE,"KI BOIS COMMUNITY ACTION FOUNDATION, INC
200 SE A St
Stigler, OK 74462-2418
(918)967-3325
",Head Start,(918) 962-3443,16106 Community Road,Fort Coffee,OK,74959,74959,,OK,Le Flore County
182,QUINTON,"KI BOIS COMMUNITY ACTION FOUNDATION, INC
200 SE A St
Stigler, OK 74462-2418
(918)967-3325
",Head Start,(918) 469-2981,710 J St,Quinton,OK,74561-2001,74561,2001,OK,Pittsburg County
183,SPIRO,"KI BOIS COMMUNITY ACTION FOUNDATION, INC
200 SE A St
Stigler, OK 74462-2418
(918)967-3325
",Head Start,(918) 962-5282,600 S Alaska,Spiro,OK,74959,74959,,OK,Le Flore County
184,RED OAK,"KI BOIS COMMUNITY ACTION FOUNDATION, INC
200 SE A St
Stigler, OK 74462-2418
(918)967-3325
",Head Start,(918) 754-2443,405 N Main St,Red Oak,OK,74563,74563,,OK,Latimer County
185,WILBURTON,"KI BOIS COMMUNITY ACTION FOUNDATION, INC
200 SE A St
Stigler, OK 74462-2418
(918)967-3325
",Head Start,(918) 465-3487,607 SW 8th St,Wilburton,OK,74578-4809,74578,4809,OK,Latimer County
186,TALIHINA,"KI BOIS COMMUNITY ACTION FOUNDATION, INC
200 SE A St
Stigler, OK 74462-2418
(918)967-3325
",Head Start,(918) 567-2082,400 Helen St,Talihina,OK,74571-2037,74571,2037,OK,Le Flore County
187,KIOWA,"KI BOIS COMMUNITY ACTION FOUNDATION, INC
200 SE A St
Stigler, OK 74462-2418
(918)967-3325
",Head Start,(918) 432-5022,805 S Van Buren,Kiowa,OK,74553-5119,74553,5119,OK,Pittsburg County
188,STIGLER WEST,"KI BOIS COMMUNITY ACTION FOUNDATION, INC
200 SE A St
Stigler, OK 74462-2418
(918)967-3325
",Head Start,(918) 967-8042,105 NW 9th St,Stigler,OK,74462-1704,74462,1704,OK,Haskell County
189,HOWE,"KI BOIS COMMUNITY ACTION FOUNDATION, INC
200 SE A St
Stigler, OK 74462-2418
(918)967-3325
",Head Start,(918) 658-2450,21444 E North Railroad,Howe,OK,74940,74940,,OK,Le Flore County
190,Choctaw Nation Child Development Center-Bennington,"CHOCTAW NATION OF OKLAHOMA EDUCATION DEPARTMENT
1802 Chukka Hina
Durant, OK 74701-7117
(580)924-8280 - 2437
",Early Head Start,(580) 847-2528,820 N Perry St,Bennington,OK,74723-1105,74723,1105,OK,Bryan County
191,Joyful Learning Center,"Northeast Oklahoma Community Action Agency, Inc.
856 E Melton Drive
Jay, OK 74346-
(918)791-8199 - 118
",Early Head Start,(918) 542-9241,1815 E Steve Owens Blvd,Miami,OK,74354-5319,74354,5319,OK,Ottawa County
192,Education Station,"Northeast Oklahoma Community Action Agency, Inc.
856 E Melton Drive
Jay, OK 74346-
(918)791-8199 - 118
",Early Head Start,(918) 253-6399,856 E Melton Drive,Jay,OK,74346,74346,,OK,Delaware County
193,Henry Lee Doublehead CDC,"Northeast Oklahoma Community Action Agency, Inc.
856 E Melton Drive
Jay, OK 74346-
(918)791-8199 - 118
",Early Head Start,(918) 431-9998,18771 W Keetoowah Circle,Tahlequah,OK,74464,74464,,OK,Cherokee County
194,Giggle Time EHS-CC,"Little Dixie Community Action Agency, Inc.
104 N E St
Hugo, OK 74743-3218
(580)326-7581
",Early Head Start,(580) 326-8286,305 N F St,Hugo,OK,74743-3229,74743,3229,OK,Choctaw County
195,Alva Head Start,"Big Five Community Services, Inc.
1502 N. 1st
Durant, OK 74701-2814
(580)924-5331
",Head Start,(580) 327-6658,901 14th St,Alva,OK,73717-2500,73717,2500,OK,Woods County
196,Boise City Head Start,"Big Five Community Services, Inc.
1502 N. 1st
Durant, OK 74701-2814
(580)924-5331
",Head Start,(580) 544-2116,402 SE 4th,Boise City,OK,73933,73933,,OK,Cimarron County
197,Calumet Public School,"Big Five Community Services, Inc.
1502 N. 1st
Durant, OK 74701-2814
(580)924-5331
",Head Start,(405) 893-2222,101 S Freehome,Calumet,OK,73014,73014,,OK,Canadian County
198,Clinton 123 Head Start,"Big Five Community Services, Inc.
1502 N. 1st
Durant, OK 74701-2814
(580)924-5331
",Head Start,(580) 323-8181,700 Avant Ave,Clinton,OK,73601-3918,73601,3918,OK,Custer County
199,Enid Westside Head Start,"Big Five Community Services, Inc.
1502 N. 1st
Durant, OK 74701-2814
(580)924-5331
",Head Start,(580) 297-5107,1902 W Chestnut Ave,Enid,OK,73703-4315,73703,4315,OK,Garfield County
200,Applewood Early Learning Center,"Big Five Community Services, Inc.
1502 N. 1st
Durant, OK 74701-2814
(580)924-5331
",Early Head Start,(580) 701-4430,525 S Quincy St,Enid,OK,73701-5456,73701,5456,OK,Garfield County
201,El Reno Public School (Hillcrest),"Big Five Community Services, Inc.
1502 N. 1st
Durant, OK 74701-2814
(580)924-5331
",Head Start,,1302 S Miles Ave,El Reno,OK,73036-5431,73036,5431,OK,Canadian County
202,Summerhill (EHS Collaboration),"Big Five Community Services, Inc.
1502 N. 1st
Durant, OK 74701-2814
(580)924-5331
",Early Head Start,(580) 234-6844,4619 W Randolph Ave,Enid,OK,73703-3442,73703,3442,OK,Garfield County
203,Turn the Page (EHS Collaboration),"Big Five Community Services, Inc.
1502 N. 1st
Durant, OK 74701-2814
(580)924-5331
",Early Head Start,(580) 366-4067,1524 E Broadway Ave,Enid,OK,73701-4537,73701,4537,OK,Garfield County
204,Fairview Public School,"Big Five Community Services, Inc.
1502 N. 1st
Durant, OK 74701-2814
(580)924-5331
",Head Start,(580) 227-4802,408 E Broadway,Fairview,OK,73737-2110,73737,2110,OK,Major County
205,Adventure Time Learning Center,"Big Five Community Services, Inc.
1502 N. 1st
Durant, OK 74701-2814
(580)924-5331
",Head Start,(580) 227-3400,720 Cedar Springs Rd,Fairview,OK,73737-9519,73737,9519,OK,Major County
206,Guymon Head Start,"Big Five Community Services, Inc.
1502 N. 1st
Durant, OK 74701-2814
(580)924-5331
",Head Start,(580) 338-6624,601 N Academy St,Guymon,OK,73942-4234,73942,4234,OK,Texas County
207,Kingfisher Head Start,"Big Five Community Services, Inc.
1502 N. 1st
Durant, OK 74701-2814
(580)924-5331
",Head Start,(405) 375-5571,519 S 9th St,Kingfisher,OK,73750-3527,73750,3527,OK,Kingfisher County
208,Shattuck Head Start,"Big Five Community Services, Inc.
1502 N. 1st
Durant, OK 74701-2814
(580)924-5331
",Head Start,(580) 938-5450,817 East 3rd Street,Shattuck,OK,73858,73858,,OK,Ellis County
209,Watonga Head Start,"Big Five Community Services, Inc.
1502 N. 1st
Durant, OK 74701-2814
(580)924-5331
",Head Start,(580) 623-5401,714 E A St,Watonga,OK,73772-5077,73772,5077,OK,Blaine County
210,Weatherford Head Start,"Big Five Community Services, Inc.
1502 N. 1st
Durant, OK 74701-2814
(580)924-5331
",Head Start,(580) 774-5137,720 N Daniel St,Weatherford,OK,73096-4104,73096,4104,OK,Custer County
211,Watonga EHS,"Big Five Community Services, Inc.
1502 N. 1st
Durant, OK 74701-2814
(580)924-5331
",Early Head Start,,901 North Leach Ave,Watonga,OK,73772-1616,73772,1616,OK,Blaine County
212,Woodward HS/EHS,"Big Five Community Services, Inc.
1502 N. 1st
Durant, OK 74701-2814
(580)924-5331
",Head Start,(580) 254-2227,813 Madison Ave,Woodward,OK,73801-1457,73801,1457,OK,Woodward County
213,Woodward HS/EHS,"Big Five Community Services, Inc.
1502 N. 1st
Durant, OK 74701-2814
(580)924-5331
",Early Head Start,(580) 254-2227,813 Madison Ave,Woodward,OK,73801-1457,73801,1457,OK,Woodward County
214,Yukon Chisholm Trail Head Start,"Big Five Community Services, Inc.
1502 N. 1st
Durant, OK 74701-2814
(580)924-5331
",Head Start,(405) 350-3180,801 W Vandament Ave,Yukon,OK,73099-3876,73099,3876,OK,Canadian County
215,Yukon Parkland Head Start (Public School),"Big Five Community Services, Inc.
1502 N. 1st
Durant, OK 74701-2814
(580)924-5331
",Head Start,(405) 354-7786,2201 Cornwell Dr,Yukon,OK,73099-5211,73099,5211,OK,Canadian County
216,Turner Learning Center EHS-CC,"Little Dixie Community Action Agency, Inc.
104 N E St
Hugo, OK 74743-3218
(580)326-7581
",Early Head Start,(580) 326-7343,702 E Central St,Hugo,OK,74743-8036,74743,8036,OK,Choctaw County
217,The Learning Tree EHS-CC,"Little Dixie Community Action Agency, Inc.
104 N E St
Hugo, OK 74743-3218
(580)326-7581
",Early Head Start,(580) 286-9123,1805 S Central Ave,Idabel,OK,74745-7914,74745,7914,OK,McCurtain County
218,Early Learning Center - Broken Bow EHS-CC,"Little Dixie Community Action Agency, Inc.
104 N E St
Hugo, OK 74743-3218
(580)326-7581
",Early Head Start,(580) 584-9801,1008 N Park Dr,Broken Bow,OK,74728-2150,74728,2150,OK,McCurtain County
219,Early Learning Center-Idabel EHS-CC,"Little Dixie Community Action Agency, Inc.
104 N E St
Hugo, OK 74743-3218
(580)326-7581
",Early Head Start,(580) 208-2517,1203 SE Quincy St,Idabel,OK,74745-6630,74745,6630,OK,McCurtain County
220,Early Learning Center-Swink EHS-CC,"Little Dixie Community Action Agency, Inc.
104 N E St
Hugo, OK 74743-3218
(580)326-7581
",Early Head Start,(580) 873-9336,500 Jourdan St,Swink,OK,74761,74761,,OK,Choctaw County
221,Early Learning Center-Antlers EHS-CC,"Little Dixie Community Action Agency, Inc.
104 N E St
Hugo, OK 74743-3218
(580)326-7581
",Early Head Start,(580) 298-6405,611 SW B St,Antlers,OK,74523-3830,74523,3830,OK,Pushmataha County
222,Early Learning Center-Hugo EHS-CC,"Little Dixie Community Action Agency, Inc.
104 N E St
Hugo, OK 74743-3218
(580)326-7581
",Early Head Start,(580) 326-3781,113 W Lowery St,Hugo,OK,74743-6847,74743,6847,OK,Choctaw County
223,Kids Company,"Northeast Oklahoma Community Action Agency, Inc.
856 E Melton Drive
Jay, OK 74346-
(918)791-8199 - 118
",Early Head Start,(918) 787-7990,119 W 7th St,Grove,OK,74344-3425,74344,3425,OK,Delaware County
224,Ponca Tribe Head Start,"Ponca Tribe of Oklahoma
20 White Eagle Dr
Ponca City, OK 74601-8310
(580)762-7927 - 102
",American Indian and Alaska Native Head Start,(580) 762-7927,20 White Eagle Dr,Ponca City,OK,74601-8310,74601,8310,OK,Kay County
225,Holdenville Head Start,"Big Five Community Services, Inc.
1502 N. 1st
Durant, OK 74701-1577
(580)924-5331
",Head Start,(405) 379-2000,510 E Main St,Holdenville,OK,74848-5246,74848,5246,OK,Hughes County
226,Calvin Public Schools,"Big Five Community Services, Inc.
1502 N. 1st
Durant, OK 74701-1577
(580)924-5331
",Head Start,(405) 645-2411,222 4th Street,Calvin,OK,74531,74531,,OK,Hughes County
227,Holdenville Public Schools,"Big Five Community Services, Inc.
1502 N. 1st
Durant, OK 74701-1577
(580)924-5331
",Head Start,(405) 379-6618,615 S Broadway St,Holdenville,OK,74848-3033,74848,3033,OK,Hughes County
228,Okemah Public School,"Big Five Community Services, Inc.
1502 N. 1st
Durant, OK 74701-1577
(580)924-5331
",Head Start,(918) 623-1874,101 N 16th St,Okemah,OK,74859-2043,74859,2043,OK,Okfuskee County
229,Weleetka Public School,"Big Five Community Services, Inc.
1502 N. 1st
Durant, OK 74701-1577
(580)924-5331
",Head Start,(405) 786-2346,302 E 6th St,Weleetka,OK,74880-8202,74880,8202,OK,Okfuskee County
230,Snyder Head Start,"COMMUNITY ACTION DEVELOPMENT CORPORATION
400 N Randlett St
Hobart, OK 73651-1636
(580)726-3343
",Head Start,(580) 569-4335,Hwy 183 Walnut,Mountain Park,OK,73559,73559,,OK,Kiowa County
231,Childcare Network #204,"SUNBEAM FAMILY SERVICES, INC.
1100 NW 14th St
Oklahoma City, OK 73106-4450
(405)528-7721
",Early Head Start,(405) 634-1260,1050 SW Grand Blvd,Oklahoma City,OK,73109-2923,73109,2923,OK,Oklahoma County
232,"Tony Reyes Bilingual Child Development Center, LCDA","SUNBEAM FAMILY SERVICES, INC.
1100 NW 14th St
Oklahoma City, OK 73106-4450
(405)528-7721
",Early Head Start,(405) 236-4667,420 SW 10th St,Oklahoma City,OK,73109-5610,73109,5610,OK,Oklahoma County
233,Linwood Early Learning Center,"SUNBEAM FAMILY SERVICES, INC.
1100 NW 14th St
Oklahoma City, OK 73106-4450
(405)528-7721
",Early Head Start,(405) 947-7722,3034 NW 17th St,Oklahoma City,OK,73107-3904,73107,3904,OK,Oklahoma County
234,Children's Lighthouse I,"SUNBEAM FAMILY SERVICES, INC.
1100 NW 14th St
Oklahoma City, OK 73106-4450
(405)528-7721
",Early Head Start,(405) 789-0661,540 N Council Rd,Oklahoma City,OK,73127-4934,73127,4934,OK,Oklahoma County
235,OKCCAA Avery Chapel Child Care,"SUNBEAM FAMILY SERVICES, INC.
1100 NW 14th St
Oklahoma City, OK 73106-4450
(405)528-7721
",Early Head Start,(405) 424-1068,1425 N Kelham Ave,Oklahoma City,OK,73117-3635,73117,3635,OK,Oklahoma County
236,OKCCAA Santa Fe South Early Childhood Center,"SUNBEAM FAMILY SERVICES, INC.
1100 NW 14th St
Oklahoma City, OK 73106-4450
(405)528-7721
",Early Head Start,(405) 600-1986,2222 SW 44th St,Oklahoma City,OK,73119-3526,73119,3526,OK,Oklahoma County
237,OKCCAA Oak Grove HS/EHS,"SUNBEAM FAMILY SERVICES, INC.
1100 NW 14th St
Oklahoma City, OK 73106-4450
(405)528-7721
",Early Head Start,(405) 685-2277,3301 SW 17th St,Oklahoma City,OK,73108-4000,73108,4000,OK,Oklahoma County
238,OKCCAA Kiddie Village HS/EHS,"SUNBEAM FAMILY SERVICES, INC.
1100 NW 14th St
Oklahoma City, OK 73106-4450
(405)528-7721
",Early Head Start,(405) 235-9833,801 NE 2nd St,Oklahoma City,OK,73104-6613,73104,6613,OK,Oklahoma County
239,OKCCAA West Oak HS/EHS,"SUNBEAM FAMILY SERVICES, INC.
1100 NW 14th St
Oklahoma City, OK 73106-4450
(405)528-7721
",Early Head Start,(405) 677-8437,2100 S Everest Ave,Oklahoma City,OK,73129-6348,73129,6348,OK,Oklahoma County
240,Coalgate Head Start,"Choctaw Nation of Oklahoma
1802 Chukka Hina
Durant, OK 74701-1802
(580)924-8280 - 2436
",American Indian and Alaska Native Head Start,(580) 927-1165,"214 S Veterans Dr
P.O. Box 455",Coalgate,OK,74538-2664,74538,2664,OK,Coal County
241,Poteau Head Start,"Choctaw Nation of Oklahoma
1802 Chukka Hina
Durant, OK 74701-1802
(580)924-8280 - 2436
",American Indian and Alaska Native Head Start,(918) 647-8500,"1507 S McKenna St
P.O. Box 8",Poteau,OK,74953-5207,74953,5207,OK,Le Flore County
242,Durant Head Start,"Choctaw Nation of Oklahoma
1802 Chukka Hina
Durant, OK 74701-1802
(580)924-8280 - 2436
",American Indian and Alaska Native Head Start,(580) 924-8536,"2752 Big Lots Rd
P.O. Box 668",Durant,OK,74701-2299,74701,2299,OK,Bryan County
243,Idabel Head Start,"Choctaw Nation of Oklahoma
1802 Chukka Hina
Durant, OK 74701-1802
(580)924-8280 - 2436
",American Indian and Alaska Native Head Start,(580) 286-7930,"2412 E Lincoln Rd
P.O. Box 1436",Idabel,OK,74745-8117,74745,8117,OK,McCurtain County
244,McAlester Head Start,"Choctaw Nation of Oklahoma
1802 Chukka Hina
Durant, OK 74701-1802
(580)924-8280 - 2436
",American Indian and Alaska Native Head Start,(918) 423-9360,3262 Afullota Hina,McAlester,OK,74501-3205,74501,3205,OK,Pittsburg County
245,Hugo Head Start,"Choctaw Nation of Oklahoma
1802 Chukka Hina
Durant, OK 74701-1802
(580)924-8280 - 2436
",American Indian and Alaska Native Head Start,(580) 326-9576,"408 N M St
P.O. Box 118",Hugo,OK,74743-1820,74743,1820,OK,Choctaw County
246,Stigler Head Start,"Choctaw Nation of Oklahoma
1802 Chukka Hina
Durant, OK 74701-1802
(580)924-8280 - 2436
",American Indian and Alaska Native Head Start,(918) 967-2897,"208 S City Lake Rd
P.O. Box 505",Stigler,OK,74462-3121,74462,3121,OK,Haskell County
247,Broken Bow Head Start,"Choctaw Nation of Oklahoma
1802 Chukka Hina
Durant, OK 74701-1802
(580)924-8280 - 2436
",American Indian and Alaska Native Head Start,(580) 584-6680,"PO Box 128
201 Chatha Road",Broken Bow,OK,74728-0128,74728,0128,OK,McCurtain County
248,Antlers Head Start,"Choctaw Nation of Oklahoma
1802 Chukka Hina
Durant, OK 74701-1802
(580)924-8280 - 2436
",American Indian and Alaska Native Head Start,(580) 298-2113,"400 1/2 SW O Street
P. O. Box 97",Antlers,OK,74523-3416,74523,3416,OK,Pushmataha County
249,Wilburton Head Start,"Choctaw Nation of Oklahoma
1802 Chukka Hina
Durant, OK 74701-1802
(580)924-8280 - 2436
",American Indian and Alaska Native Head Start,(918) 465-5360,1016 Highway 2 N,Wilburton,OK,74578-3607,74578,3607,OK,Latimer County
250,Wright City Head Start,"Choctaw Nation of Oklahoma
1802 Chukka Hina
Durant, OK 74701-1802
(580)924-8280 - 2436
",American Indian and Alaska Native Head Start,(580) 981-2634,"PO Box 529
105 W. 10th",Wright City,OK,74766-0529,74766,0529,OK,McCurtain County
251,Atoka Head Start,"Choctaw Nation of Oklahoma
1802 Chukka Hina
Durant, OK 74701-1802
(580)924-8280 - 2436
",American Indian and Alaska Native Head Start,(580) 889-7054,"PO Box 516
711 Greathouse Drive",Atoka,OK,74525-0516,74525,0516,OK,Atoka County
252,Bennington Head Start,"Choctaw Nation of Oklahoma
1802 Chukka Hina
Durant, OK 74701-1802
(580)924-8280 - 2436
",American Indian and Alaska Native Head Start,(580) 847-2767,"820 N Perry St
P.O. Box 174",Bennington,OK,74723-1105,74723,1105,OK,Bryan County
253,Inola Head Start,"Cherokee Nation Early Childhood Unit
17675 S Muskogee Ave
Tahlequah, OK 74464-5492
(918)453-5757 - 5727
",American Indian and Alaska Native Head Start,(918) 543-1217,"450 B St NW
450 B St NW",Inola,OK,74036-3607,74036,3607,OK,Rogers County
254,Zion Head Start,"Cherokee Nation Early Childhood Unit
17675 S Muskogee Ave
Tahlequah, OK 74464-5492
(918)453-5757 - 5727
",American Indian and Alaska Native Head Start,(918) 696-7866,470658 E 850 Rd,Stilwell,OK,74960,74960,,OK,Adair County
255,Rocky Mountain Head Start,"Cherokee Nation Early Childhood Unit
17675 S Muskogee Ave
Tahlequah, OK 74464-5492
(918)453-5757 - 5727
",American Indian and Alaska Native Head Start,(918) 696-7509,RR 1 Box 665,Stilwell,OK,74960-9726,74960,9726,OK,Adair County
256,Webbers Falls Head Start,"Cherokee Nation Early Childhood Unit
17675 S Muskogee Ave
Tahlequah, OK 74464-5492
(918)453-5757 - 5727
",American Indian and Alaska Native Head Start,(918) 464-2959,"207 Gibson Street
207 Gibson Street",Webbers Falls,OK,74470,74470,,OK,Muskogee County
257,Brushy Head Start,"Cherokee Nation Early Childhood Unit
17675 S Muskogee Ave
Tahlequah, OK 74464-5492
(918)453-5757 - 5727
",American Indian and Alaska Native Head Start,(918) 775-4458,100968 S 4650 Rd,Sallisaw,OK,74955-2672,74955,2672,OK,Sequoyah County
258,Shady Grove Head Start,"Cherokee Nation Early Childhood Unit
17675 S Muskogee Ave
Tahlequah, OK 74464-5492
(918)453-5757 - 5727
",American Indian and Alaska Native Head Start,(918) 772-3505,11042 W Shady Grove Rd,Hulbert,OK,74441-4154,74441,4154,OK,Cherokee County
259,Maryetta Head Start,"Cherokee Nation Early Childhood Unit
17675 S Muskogee Ave
Tahlequah, OK 74464-5492
(918)453-5757 - 5727
",American Indian and Alaska Native Head Start,(918) 696-3751,"RR 6 Box 2840
1 MI N. on Hwy 59",Stilwell,OK,74960-9452,74960,9452,OK,Adair County
260,Kenwood Head Start,"Cherokee Nation Early Childhood Unit
17675 S Muskogee Ave
Tahlequah, OK 74464-5492
(918)453-5757 - 5727
",American Indian and Alaska Native Head Start,(918) 434-5106,48512 S 502 Rd,Salina,OK,74365-2566,74365,2566,OK,Mayes County
261,Salina Head Start,"Cherokee Nation Early Childhood Unit
17675 S Muskogee Ave
Tahlequah, OK 74464-5492
(918)453-5757 - 5727
",American Indian and Alaska Native Head Start,(918) 434-6076,907 N Saltwell St,Salina,OK,74365-2217,74365,2217,OK,Mayes County
262,Salina Early Learning Academy,"Cherokee Nation Early Childhood Unit
17675 S Muskogee Ave
Tahlequah, OK 74464-5492
(918)453-5757 - 5727
",American Indian and Alaska Native Head Start,(918) 434-1091,707 N Cherokee St,Salina,OK,74365-2020,74365,2020,OK,Mayes County
263,Sequoyah Public School Head Start,"Cherokee Nation Early Childhood Unit
17675 S Muskogee Ave
Tahlequah, OK 74464-5492
(918)453-5757 - 5727
",American Indian and Alaska Native Head Start,(918) 458-4110,425 S College Ave,Tahlequah,OK,74464-4419,74464,4419,OK,Cherokee County
264,Cherry Tree EHS,"Cherokee Nation Early Head Start
17675 S Muskogee Ave
Tahlequah, OK 74464-5492
(918)453-5757 - 5727
",American Indian and Alaska Native Head Start,(918) 696-2669,"RR 1 Box 685
8 Mile South Hwy 59",Stilwell,OK,74960-9726,74960,9726,OK,Adair County
265,Jay,"Cherokee Nation Early Head Start
17675 S Muskogee Ave
Tahlequah, OK 74464-5492
(918)453-5757 - 5727
",American Indian and Alaska Native Head Start,(918) 253-4002,"1011 W Delaware
1011 W Delaware",Jay,OK,74346,74346,,OK,Delaware County
266,Pryor,"Cherokee Nation Early Head Start
17675 S Muskogee Ave
Tahlequah, OK 74464-5492
(918)453-5757 - 5727
",American Indian and Alaska Native Head Start,(918) 825-7987,203 Cherokee Hts,Pryor,OK,74361-9681,74361,9681,OK,Mayes County
267,Wauhillau (Nowata),"Cherokee Nation Early Head Start
17675 S Muskogee Ave
Tahlequah, OK 74464-5492
(918)453-5757 - 5727
",American Indian and Alaska Native Head Start,(918) 273-0623,200 Wauhillau Ct,Nowata,OK,74048-2443,74048,2443,OK,Nowata County
268,Redbird,"Cherokee Nation Early Head Start
17675 S Muskogee Ave
Tahlequah, OK 74464-5492
(918)453-5757 - 5727
",American Indian and Alaska Native Head Start,(918) 696-7894,US-59,Stilwell,OK,74960,74960,,OK,Adair County
269,Tahlequah Early Learning Academy,"Cherokee Nation Early Head Start
17675 S Muskogee Ave
Tahlequah, OK 74464-5492
(918)453-5757 - 5727
",American Indian and Alaska Native Head Start,(918) 316-2085,351 Academy St,Tahlequah,OK,74464-2659,74464,2659,OK,Cherokee County
270,Stillwater Head Start/Early Head Start,"United Community Action Program, Inc.
501 6th St
Pawnee, OK 74058-2542
(918)762-2561 - 164
",Head Start,(405) 385-0188,1601 S Main St,Stillwater,OK,74074-7933,74074,7933,OK,Payne County
271,Sapulpa Head Start,"United Community Action Program, Inc.
501 6th St
Pawnee, OK 74058-2542
(918)762-2561 - 164
",Head Start,(918) 224-1083,404 S Walnut St,Sapulpa,OK,74066-5337,74066,5337,OK,Creek County
272,Guthrie Head Start,"United Community Action Program, Inc.
501 6th St
Pawnee, OK 74058-2542
(918)762-2561 - 164
",Head Start,(405) 282-1257,2700 S Division St,Guthrie,OK,73044-6843,73044,6843,OK,Logan County
273,Perry Head Start,"United Community Action Program, Inc.
501 6th St
Pawnee, OK 74058-2542
(918)762-2561 - 164
",Head Start,(580) 336-4373,1201 N 4th St,Perry,OK,73077-9300,73077,9300,OK,Noble County
274,Beggs Head Start,"United Community Action Program, Inc.
501 6th St
Pawnee, OK 74058-2542
(918)762-2561 - 164
",Head Start,(918) 267-3737,8060 Highway 16,Beggs,OK,74421-3126,74421,3126,OK,Okmulgee County
275,Okmulgee Head Start,"United Community Action Program, Inc.
501 6th St
Pawnee, OK 74058-2542
(918)762-2561 - 164
",Head Start,(918) 756-1561,4300 N Wood Dr,Okmulgee,OK,74447-9762,74447,9762,OK,Okmulgee County
276,Henryetta Head Start,"United Community Action Program, Inc.
501 6th St
Pawnee, OK 74058-2542
(918)762-2561 - 164
",Head Start,(918) 652-8092,100 W Clegern St,Henryetta,OK,74437-6218,74437,6218,OK,Okmulgee County
277,Hominy Head Start/Early Head Start,"United Community Action Program, Inc.
501 6th St
Pawnee, OK 74058-2542
(918)762-2561 - 164
",Head Start,(918) 885-4422,1120 S She She Ave,Hominy,OK,74035-6514,74035,6514,OK,Osage County
278,Ponca City Head Start,"United Community Action Program, Inc.
501 6th St
Pawnee, OK 74058-2542
(918)762-2561 - 164
",Head Start,(580) 765-1173,407 S Ash St,Ponca City,OK,74601-5902,74601,5902,OK,Kay County
279,Blackwell Head Start,"United Community Action Program, Inc.
501 6th St
Pawnee, OK 74058-2542
(918)762-2561 - 164
",Head Start,(580) 363-5566,624 W Lincoln Ave,Blackwell,OK,74631-3236,74631,3236,OK,Kay County
280,Bristow I Head Start/Early Head Start,"United Community Action Program, Inc.
501 6th St
Pawnee, OK 74058-2542
(918)762-2561 - 164
",Head Start,(918) 367-9662,715 Country Club Drive,Bristow,OK,74010,74010,,OK,Creek County
281,Pawnee Head Start/Early Head Start,"United Community Action Program, Inc.
501 6th St
Pawnee, OK 74058-2542
(918)762-2561 - 164
",Head Start,(918) 762-3474,1101 Sewell Dr,Pawnee,OK,74058,74058,,OK,Pawnee County
282,Pawhuska Head Start,"United Community Action Program, Inc.
501 6th St
Pawnee, OK 74058-2542
(918)762-2561 - 164
",Head Start,(918) 287-1611,1425 Lynn Ave,Pawhuska,OK,74056-2256,74056,2256,OK,Osage County
283,Cushing Head Start,"United Community Action Program, Inc.
501 6th St
Pawnee, OK 74058-2542
(918)762-2561 - 164
",Head Start,(918) 225-0909,223 S Wilson Ave,Cushing,OK,74023-4146,74023,4146,OK,Payne County
284,Stillwater Early Head Start,"United Community Action Program, Inc.
501 6th St
Pawnee, OK 74058-2542
(918)762-2561 - 164
",Early Head Start,(405) 377-1519,1202 S West St,Stillwater,OK,74074-5702,74074,5702,OK,Payne County
285,Okmulgee Head Start,"United Community Action Program, Inc.
501 6th St
Pawnee, OK 74058-2542
(918)762-2561 - 164
",Early Head Start,(918) 756-1561,4300 N Wood Dr,Okmulgee,OK,74447-9762,74447,9762,OK,Okmulgee County
286,Pawnee Head Start/Early Head Start,"United Community Action Program, Inc.
501 6th St
Pawnee, OK 74058-2542
(918)762-2561 - 164
",Early Head Start,(918) 762-3474,1101 Sewell Dr,Pawnee,OK,74058,74058,,OK,Pawnee County
287,Perry Early Head Start,"United Community Action Program, Inc.
501 6th St
Pawnee, OK 74058-2542
(918)762-2561 - 164
",Early Head Start,(580) 572-9978,401 1/2 Noble St,Perry,OK,73077-2407,73077,2407,OK,Noble County
288,Beggs 1 Head Start,"United Community Action Program, Inc.
501 6th St
Pawnee, OK 74058-2542
(918)762-2561 - 164
",Head Start,(918) 267-3616,1201 W 9th St,Beggs,OK,74421-2193,74421,2193,OK,Okmulgee County
289,Pawhuska Early Head Start,"United Community Action Program, Inc.
501 6th St
Pawnee, OK 74058-2542
(918)762-2561 - 164
",Early Head Start,(918) 287-3195,1923 McKenzie Rd,Pawhuska,OK,74056-5018,74056,5018,OK,Osage County
290,Guthrie Head Start,"United Community Action Program, Inc.
501 6th St
Pawnee, OK 74058-2542
(918)762-2561 - 164
",Early Head Start,(405) 282-1257,2700 S Division St,Guthrie,OK,73044-6843,73044,6843,OK,Logan County
291,Henryetta Head Start,"United Community Action Program, Inc.
501 6th St
Pawnee, OK 74058-2542
(918)762-2561 - 164
",Early Head Start,(918) 652-8092,100 W Clegern St,Henryetta,OK,74437-6218,74437,6218,OK,Okmulgee County
292,Sapulpa Early Head Start,"United Community Action Program, Inc.
501 6th St
Pawnee, OK 74058-2542
(918)762-2561 - 164
",Early Head Start,(918) 224-1094,1500 N Hickory St,Sapulpa,OK,74066-1740,74066,1740,OK,Creek County
293,Blackwell Head Start,"United Community Action Program, Inc.
501 6th St
Pawnee, OK 74058-2542
(918)762-2561 - 164
",Early Head Start,(580) 363-5566,624 W Lincoln Ave,Blackwell,OK,74631-3236,74631,3236,OK,Kay County
294,Salina Early Learning Academy,"Cherokee Nation Early Head Start
17675 S Muskogee Ave
Tahlequah, OK 74464-5492
(918)453-5757 - 5727
",American Indian and Alaska Native Head Start,(918) 494-1091,707 N Cherokee St,Salina,OK,74365-2020,74365,2020,OK,Mayes County
295,Cleveland Head Start,"United Community Action Program, Inc.
501 6th St
Pawnee, OK 74058-2542
(918)762-2561 - 164
",Head Start,(918) 358-5304,900 W Delaware St,Cleveland,OK,74020-4212,74020,4212,OK,Pawnee County
296,Stillwater Head Start/Early Head Start,"United Community Action Program, Inc.
501 6th St
Pawnee, OK 74058-2542
(918)762-2561 - 164
",Early Head Start,(405) 385-0188,1601 S Main St,Stillwater,OK,74074-7933,74074,7933,OK,Payne County
297,Hominy Head Start 2,"United Community Action Program, Inc.
501 6th St
Pawnee, OK 74058-2542
(918)762-2561 - 164
",Head Start,(918) 885-4422,617 N Eastern,Hominy,OK,74035-1593,74035,1593,OK,Osage County
298,Hominy Head Start/Early Head Start,"United Community Action Program, Inc.
501 6th St
Pawnee, OK 74058-2542
(918)762-2561 - 164
",Early Head Start,(918) 885-4422,1120 S She She Ave,Hominy,OK,74035-6514,74035,6514,OK,Osage County
299,Cleveland Early Head Start,"United Community Action Program, Inc.
501 6th St
Pawnee, OK 74058-2542
(918)762-2561 - 164
",Early Head Start,(918) 358-3121,908 W Cherokee St,Cleveland,OK,74020-4208,74020,4208,OK,Pawnee County
300,Hulbert Public School,"Cherokee Nation Early Childhood Unit
17675 S Muskogee Ave
Tahlequah, OK 74464-5492
(918)453-5757 - 5727
",American Indian and Alaska Native Head Start,(918) 772-2861,315 S Rider Ln,Hulbert,OK,74441-4186,74441,4186,OK,Cherokee County
301,Sequoyah Head Start,"Cherokee Nation Early Childhood Unit
17675 S Muskogee Ave
Tahlequah, OK 74464-5492
(918)453-5757 - 5727
",American Indian and Alaska Native Head Start,(918) 458-4130,425 S College Ave,Tahlequah,OK,74464-4419,74464,4419,OK,Cherokee County
302,Cushing Head Start,"United Community Action Program, Inc.
501 6th St
Pawnee, OK 74058-2542
(918)762-2561 - 164
",Early Head Start,(918) 225-0909,223 S Wilson Ave,Cushing,OK,74023-4146,74023,4146,OK,Payne County
303,Little Feet Big Steps,"Central Tribes of the Shawnee Area, Inc.
1535 N Mckinley Ave
Shawnee, OK 74801-5200
(405)273-4415
",American Indian and Alaska Native Head Start,(405) 878-5820,1533 N McKinley Ave,Shawnee,OK,74801-5200,74801,5200,OK,Pottawatomie County
304,Early Bird Head Start,"Central Tribes of the Shawnee Area, Inc.
1535 N Mckinley Ave
Shawnee, OK 74801-5200
(405)273-4415
",American Indian and Alaska Native Head Start,(918) 225-1029,111 W Vine St,Cushing,OK,74023-2141,74023,2141,OK,Payne County
305,Little Feet Big Steps,"Central Tribes of the Shawnee Area, Inc.
1535 N Mckinley Ave
Shawnee, OK 74801-5200
(405)273-4415
",American Indian and Alaska Native Head Start,(405) 878-5820,1533 N McKinley Ave,Shawnee,OK,74801-5200,74801,5200,OK,Pottawatomie County
306,Frost,"Community Action Project of Tulsa County (CAP)
4606 S Garnett Rd Ste 100
Tulsa, OK 74146-5216
(918)382-3200
",Head Start,(918) 556-0319,203 W 28th St N,Tulsa,OK,74106-2207,74106,2207,OK,Tulsa County
307,Disney,"Community Action Project of Tulsa County (CAP)
4606 S Garnett Rd Ste 100
Tulsa, OK 74146-5216
(918)382-3200
",Head Start,(918) 439-9608,11610 E 25th St,Tulsa,OK,74129-5627,74129,5627,OK,Tulsa County
308,McClure,"Community Action Project of Tulsa County (CAP)
4606 S Garnett Rd Ste 100
Tulsa, OK 74146-5216
(918)382-3200
",Head Start,(918) 747-7123,6150 S Yorktown Ave,Tulsa,OK,74136-0958,74136,0958,OK,Tulsa County
309,Skelly,"Community Action Project of Tulsa County (CAP)
4606 S Garnett Rd Ste 100
Tulsa, OK 74146-5216
(918)382-3200
",Head Start,(918) 949-3400,8811 E 31st St,Tulsa,OK,74145-1701,74145,1701,OK,Tulsa County
310,Rosa Parks ECEC,"Community Action Project of Tulsa County (CAP)
4606 S Garnett Rd Ste 100
Tulsa, OK 74146-5216
(918)382-3200
",Head Start,(918) 286-0660,13804 E 46th Place South,Tulsa,OK,74134,74134,,OK,Tulsa County
311,Eugene Field,"Community Action Project of Tulsa County (CAP)
4606 S Garnett Rd Ste 100
Tulsa, OK 74146-5216
(918)382-3200
",Head Start,(918) 340-5600,1120 W 22nd St,Tulsa,OK,74107-2812,74107,2812,OK,Tulsa County
312,ECDC Reed,"Community Action Project of Tulsa County (CAP)
4606 S Garnett Rd Ste 100
Tulsa, OK 74146-5216
(918)382-3200
",Head Start,(918) 935-3101,10908 E 5th St,Tulsa,OK,74128-1612,74128,1612,OK,Tulsa County
313,Disney,"Community Action Project of Tulsa County (CAP)
4606 S Garnett Rd Ste 100
Tulsa, OK 74146-5216
(918)382-3200
",Early Head Start,(918) 439-9608,11610 E 25th St,Tulsa,OK,74129-5627,74129,5627,OK,Tulsa County
314,Eugene Field,"Community Action Project of Tulsa County (CAP)
4606 S Garnett Rd Ste 100
Tulsa, OK 74146-5216
(918)382-3200
",Early Head Start,(918) 340-5600,1120 W 22nd St,Tulsa,OK,74107-2812,74107,2812,OK,Tulsa County
315,Skelly,"Community Action Project of Tulsa County (CAP)
4606 S Garnett Rd Ste 100
Tulsa, OK 74146-5216
(918)382-3200
",Early Head Start,(918) 949-3400,8811 E 31st St,Tulsa,OK,74145-1701,74145,1701,OK,Tulsa County
316,Frost,"Community Action Project of Tulsa County (CAP)
4606 S Garnett Rd Ste 100
Tulsa, OK 74146-5216
(918)382-3200
",Early Head Start,(918) 556-0319,203 W 28th St N,Tulsa,OK,74106-2207,74106,2207,OK,Tulsa County
317,Reed,"Community Action Project of Tulsa County (CAP)
4606 S Garnett Rd Ste 100
Tulsa, OK 74146-5216
(918)382-3200
",Early Head Start,(918) 437-1495,10940 E 5th St,Tulsa,OK,74128-1612,74128,1612,OK,Tulsa County
318,Sand Springs,"Community Action Project of Tulsa County (CAP)
4606 S Garnett Rd Ste 100
Tulsa, OK 74146-5216
(918)382-3200
",Head Start,(918) 419-2902,1701 Park Rd,Sand Springs,OK,74063-8701,74063,8701,OK,Tulsa County
319,McClure,"Community Action Project of Tulsa County (CAP)
4606 S Garnett Rd Ste 100
Tulsa, OK 74146-5216
(918)382-3200
",Early Head Start,(918) 747-7123,6150 S Yorktown Ave,Tulsa,OK,74136-0958,74136,0958,OK,Tulsa County
320,Sand Springs Early Head Start,"United Community Action Program, Inc.
501 6th St
Pawnee, OK 74058-2542
(918)762-2561 - 164
",Early Head Start,(918) 419-2901,1701 East Park Rd,Sand Springs,OK,74063-8701,74063,8701,OK,Tulsa County
321,Bill Haddock Center,"Big Five Community Services, Inc.
1502 N 1st Ave
Durant, OK 74701-2814
(580)924-5331
",Head Start,(580) 924-4907,1502 N 1st Ave,Durant,OK,74701-2814,74701,2814,OK,Bryan County
322,Calera Head Start,"Big Five Community Services, Inc.
1502 N 1st Ave
Durant, OK 74701-2814
(580)924-5331
",Head Start,(580) 434-5500,111 N 3rd St,Calera,OK,74730-1711,74730,1711,OK,Bryan County
323,Fox Head Start,"Big Five Community Services, Inc.
1502 N 1st Ave
Durant, OK 74701-2814
(580)924-5331
",Head Start,(580) 673-2206,100 Creek Ave,Fox,OK,73435,73435,,OK,Carter County
324,Cottonwood Head Start,"Big Five Community Services, Inc.
1502 N 1st Ave
Durant, OK 74701-2814
(580)924-5331
",Head Start,(580) 927-2251,1 Lubbis St,Coalgate,OK,74538,74538,,OK,Coal County
325,Ada Big Five Head Start,"Big Five Community Services, Inc.
1502 N 1st Ave
Durant, OK 74701-2814
(580)924-5331
",Head Start,(580) 332-8233,1721 Cradduck Rd,Ada,OK,74820-9491,74820,9491,OK,Pontotoc County
326,Wilson Head Start,"Big Five Community Services, Inc.
1502 N 1st Ave
Durant, OK 74701-2814
(580)924-5331
",Head Start,(580) 668-2306,1860 Hewitt Rd,Wilson,OK,73463-1882,73463,1882,OK,Carter County
327,Healdton Bullpups,"Big Five Community Services, Inc.
1502 N 1st Ave
Durant, OK 74701-2814
(580)924-5331
",Head Start,(580) 224-1899,457 Carter St,Healdton,OK,73438-2846,73438,2846,OK,Carter County
328,SOSU,"Big Five Community Services, Inc.
1502 N 1st Ave
Durant, OK 74701-2814
(580)924-5331
",Head Start,(580) 924-5043,1335 N 6th Ave,Durant,OK,74701-3339,74701,3339,OK,Bryan County
329,Achille Head Start,"Big Five Community Services, Inc.
1502 N 1st Ave
Durant, OK 74701-2814
(580)924-5331
",Head Start,(580) 283-3022,201 N 5th Ave,Achille,OK,74720,74720,,OK,Bryan County
330,Stonewall Head Start,"Big Five Community Services, Inc.
1502 N 1st Ave
Durant, OK 74701-2814
(580)924-5331
",Head Start,(580) 777-2221,26050 County Rd 3590,Fittstown,OK,74842,74842,,OK,Pontotoc County
331,Tupelo Head Start,"Big Five Community Services, Inc.
1502 N 1st Ave
Durant, OK 74701-2814
(580)924-5331
",Head Start,(580) 845-2887,310 High School Rd,Tupelo,OK,74572,74572,,OK,Coal County
332,Marietta Head Start,"Big Five Community Services, Inc.
1502 N 1st Ave
Durant, OK 74701-2814
(580)924-5331
",Head Start,(580) 276-4192,910 W Main St,Marietta,OK,73448-2207,73448,2207,OK,Love County
333,Roff Head Start,"Big Five Community Services, Inc.
1502 N 1st Ave
Durant, OK 74701-2814
(580)924-5331
",Head Start,(580) 332-8976,21880 County Rd 3499,Fitzhugh,OK,74843,74843,,OK,Pontotoc County
334,Marietta Day Care,"Big Five Community Services, Inc.
1502 N 1st Ave
Durant, OK 74701-2814
(580)924-5331
",Head Start,(580) 276-2474,800 S Highway 77,Marietta,OK,73448-4208,73448,4208,OK,Love County
335,Will Rogers,"Big Five Community Services, Inc.
1502 N 1st Ave
Durant, OK 74701-2814
(580)924-5331
",Head Start,(580) 223-2482,11 Monroe St NW,Ardmore,OK,73401-2027,73401,2027,OK,Carter County
336,Coalgate Head Start,"Big Five Community Services, Inc.
1502 N 1st Ave
Durant, OK 74701-2814
(580)924-5331
",Head Start,(580) 927-3699,111 W Fox Ave,Coalgate,OK,74538-1816,74538,1816,OK,Coal County
337,Jackie Watson Center,"Big Five Community Services, Inc.
1502 N 1st Ave
Durant, OK 74701-2814
(580)924-5331
",Head Start,(580) 924-7404,3725 W Arkansas St,Durant,OK,74701-4511,74701,4511,OK,Bryan County
338,Latta Kids Zone,"Big Five Community Services, Inc.
1502 N 1st Ave
Durant, OK 74701-2814
(580)924-5331
",Head Start,(580) 332-3035,13924 County Road 1560,Ada,OK,74820-0804,74820,0804,OK,Pontotoc County
339,Zaneis Head Start,"Big Five Community Services, Inc.
1502 N 1st Ave
Durant, OK 74701-2814
(580)924-5331
",Head Start,(580) 668-2737,30515 US Highway 70,Wilson,OK,73463-7311,73463,7311,OK,Carter County
340,Colbert Head Start,"Big Five Community Services, Inc.
1502 N 1st Ave
Durant, OK 74701-2814
(580)924-5331
",Head Start,(580) 296-2738,407 N Maupin Rd,Colbert,OK,74733-1609,74733,1609,OK,Bryan County
341,Silo Head Start,"Big Five Community Services, Inc.
1502 N 1st Ave
Durant, OK 74701-2814
(580)924-5331
",Head Start,(580) 924-5299,86 Texas St,Durant,OK,74701-8612,74701,8612,OK,Bryan County
342,Robert E. Lee,"Big Five Community Services, Inc.
1502 N 1st Ave
Durant, OK 74701-2814
(580)924-5331
",Head Start,(580) 924-3628,824 W Louisiana St,Durant,OK,74701-6100,74701,6100,OK,Bryan County
343,Education Engine HS/EHS,"Crossroads Youth & Family Services, Inc.
Crossroads Early Head Start
1333 West Main Street
Norman, OK 73069-6864
(405)292-6440 - 340
",Early Head Start,(580) 248-0474,"2402 SW E Ave
Education Engine",Lawton,OK,73505-7332,73505,7332,OK,Comanche County
344,CSBI  HS/EHS,"Crossroads Youth & Family Services, Inc.
Crossroads Head Start
1333 West Main Street
Norman, OK 73069-6864
(405)292-6440 - 340
",Head Start,(405) 701-2141,1111 E Main St,Norman,OK,73071-5331,73071,5331,OK,Cleveland County
345,Learning Tree HS/EHS - Shawnee,"Crossroads Youth & Family Services, Inc.
Crossroads Head Start
1333 West Main Street
Norman, OK 73069-6864
(405)292-6440 - 340
",Head Start,(405) 214-4446,1528 N McKinley Ave,Shawnee,OK,74801-5207,74801,5207,OK,Pottawatomie County
346,Main Street Head Start,"Crossroads Youth & Family Services, Inc.
Crossroads Early Head Start
1333 West Main Street
Norman, OK 73069-6864
(405)292-6440 - 340
",Early Head Start,(405) 292-6440,1333 W Main St,Norman,OK,73069-6864,73069,6864,OK,Cleveland County
347,Moore HS/EHS,"Crossroads Youth & Family Services, Inc.
Crossroads Head Start
1333 West Main Street
Norman, OK 73069-6864
(405)292-6440 - 340
",Head Start,(405) 912-9993,312 N Janeway Ave,Moore,OK,73160-3918,73160,3918,OK,Cleveland County
348,Summit Ridge Early Head Start,"Crossroads Youth & Family Services, Inc.
Crossroads Head Start
1333 West Main Street
Norman, OK 73069-6864
(405)292-6440 - 340
",Head Start,(580) 354-9199,501 NE Flower Mound Rd,Lawton,OK,73507-7230,73507,7230,OK,Comanche County
349,Wilson Head Start,"Southwest Oklahoma Community Action Group, Inc.
905 N Willard St
Altus, OK 73521-3204
(580)482-5040
",Head Start,(580) 480-1155,"905 N Willard St
PO Box 1088",Altus,OK,73521-3204,73521,3204,OK,Jackson County
350,June Bailey Head Start,"Southwest Oklahoma Community Action Group, Inc.
905 N Willard St
Altus, OK 73521-3204
(580)482-5040
",Head Start,(580) 477-7739,"201 S Lee St
PO Box 1088",Altus,OK,73521-4221,73521,4221,OK,Jackson County
351,Altus Child Development/Lincoln Head Start,"Southwest Oklahoma Community Action Group, Inc.
905 N Willard St
Altus, OK 73521-3204
(580)482-5040
",Head Start,(580) 482-3080,"900 S Carver Rd
PO Box 1088",Altus,OK,73521-4602,73521,4602,OK,Jackson County
352,Elk City Head Start,"Southwest Oklahoma Community Action Group, Inc.
905 N Willard St
Altus, OK 73521-3204
(580)482-5040
",Head Start,(580) 225-4103,"PO Box 381
1700/2 W 8th",Elk City,OK,73648-0381,73648,0381,OK,Beckham County
353,Hollis Head Start,"Southwest Oklahoma Community Action Group, Inc.
905 N Willard St
Altus, OK 73521-3204
(580)482-5040
",Head Start,(580) 688-9177,"902 E Vivian St
PO Box #129",Hollis,OK,73550-2634,73550,2634,OK,Harmon County
354,Mangum Head Start,"Southwest Oklahoma Community Action Group, Inc.
905 N Willard St
Altus, OK 73521-3204
(580)482-5040
",Head Start,(580) 782-3712,"571 E Lincoln St
PO Box #65",Mangum,OK,73554-4407,73554,4407,OK,Greer County
355,Altus Child Development/Lincoln Head Start,"SOUTHWEST OK COMMUNITY ACTION GROUP, INC
905 N Willard St
Altus, OK 73521-3204
(580)482-5040
",Early Head Start,(580) 482-3080,"900 S Carver Rd
PO Box 1088",Altus,OK,73521-4602,73521,4602,OK,Jackson County
356,Hollis Head Start,"SOUTHWEST OK COMMUNITY ACTION GROUP, INC
905 N Willard St
Altus, OK 73521-3204
(580)482-5040
",Early Head Start,(580) 688-9177,"902 E Vivian St
PO Box #129",Hollis,OK,73550-2634,73550,2634,OK,Harmon County
357,Elk City Head Start,"SOUTHWEST OK COMMUNITY ACTION GROUP, INC
905 N Willard St
Altus, OK 73521-3204
(580)482-5040
",Early Head Start,(580) 225-4101,"PO Box 381
1700/2 W 8th",Elk City,OK,73648-0381,73648,0381,OK,Beckham County
358,June Bailey Head Start,"SOUTHWEST OK COMMUNITY ACTION GROUP, INC
905 N Willard St
Altus, OK 73521-3204
(580)482-5040
",Early Head Start,(580) 482-1919,"201 S Lee St
PO Box 1088",Altus,OK,73521-4221,73521,4221,OK,Jackson County
359,Mangum Head Start,"SOUTHWEST OK COMMUNITY ACTION GROUP, INC
905 N Willard St
Altus, OK 73521-3204
(580)482-5040
",Early Head Start,(580) 782-3712,"571 E Lincoln St
PO Box #65",Mangum,OK,73554-4407,73554,4407,OK,Greer County
360,Wilson Head Start,"SOUTHWEST OK COMMUNITY ACTION GROUP, INC
905 N Willard St
Altus, OK 73521-3204
(580)482-5040
",Early Head Start,(580) 480-1155,"905 N Willard St
PO Box 1088",Altus,OK,73521-3204,73521,3204,OK,Jackson County
361,Chandler Head Start,"Wewoka Public Schools Co-op Head Start
220 S Wewoka Ave
Wewoka, OK 74884-2640
(405)257-2321
",Head Start,(405) 240-5097,401 S Iowa Ave,Chandler,OK,74834-2473,74834,2473,OK,Lincoln County
362,Agra Pre-K Head Start,"Wewoka Public Schools Co-op Head Start
220 S Wewoka Ave
Wewoka, OK 74884-2640
(405)257-2321
",Head Start,(918) 375-2856,"PO Box 279
421 N. Cleveland",Agra,OK,74824-0279,74824,0279,OK,Lincoln County
363,Stroud Head Start,"Wewoka Public Schools Co-op Head Start
220 S Wewoka Ave
Wewoka, OK 74884-2640
(405)257-2321
",Head Start,(918) 968-1443,823 S 3rd Ave,Stroud,OK,74079-5217,74079,5217,OK,Lincoln County
364,Seminole Head Start,"Wewoka Public Schools Co-op Head Start
220 S Wewoka Ave
Wewoka, OK 74884-2640
(405)257-2321
",Head Start,(405) 382-4800,200 W Seminole Ave,Seminole,OK,74868-3334,74868,3334,OK,Seminole County
365,Wewoka Head Start,"Wewoka Public Schools Co-op Head Start
220 S Wewoka Ave
Wewoka, OK 74884-2640
(405)257-2321
",Head Start,(405) 257-9911,"PO Box 870
1121 S Okfuskee",Wewoka,OK,74884-0870,74884,0870,OK,Seminole County
366,Prague Head Start,"Wewoka Public Schools Co-op Head Start
220 S Wewoka Ave
Wewoka, OK 74884-2640
(405)257-2321
",Head Start,(405) 567-1421,"3502 Nbu
1319 Westlawn",Prague,OK,74864-2031,74864,2031,OK,Lincoln County
367,Bowlegs Head Start,"Wewoka Public Schools Co-op Head Start
220 S Wewoka Ave
Wewoka, OK 74884-2640
(405)257-2321
",Head Start,(405) 398-4172,100 Bison Drive,Bowlegs,OK,74830,74830,,OK,Seminole County
368,Davenport Head Start,"Wewoka Public Schools Co-op Head Start
220 S Wewoka Ave
Wewoka, OK 74884-2640
(405)257-2321
",Head Start,(918) 377-2277,417 Broadway,Davenport,OK,74026,74026,,OK,Lincoln County
369,Choctaw Nation Child Development-Coalgate,"CHOCTAW NATION OF OKLAHOMA EDUCATION DEPARTMENT
1802 Chukka Hina
Durant, OK 74701-7117
(580)924-8280 - 2437
",Early Head Start,(580) 927-2118,214 S Veterans Dr,Coalgate,OK,74538-2664,74538,2664,OK,Coal County
370,Choctaw Nation Child Development-Durant,"CHOCTAW NATION OF OKLAHOMA EDUCATION DEPARTMENT
1802 Chukka Hina
Durant, OK 74701-7117
(580)924-8280 - 2437
",Early Head Start,(580) 920-1801,2752 Big Lots Rd,Durant,OK,74701-2299,74701,2299,OK,Bryan County
371,Choctaw Nation Expansion,"CHOCTAW NATION OF OKLAHOMA EDUCATION DEPARTMENT
1802 Chukka Hina
Durant, OK 74701-7117
(580)924-8280 - 2437
",Early Head Start,(580) 924-8280,816 W Evergreen St,Durant,OK,74701-4752,74701,4752,OK,Bryan County
372,Purcell Pre-K collaboration,"DELTA COMMUNITY ACTION
308 SW 2nd Street
Lindsay, OK 73052-5404
(405)756-1100
",Head Start,(405) 527-2146,809 N 9th Ave,Purcell,OK,73080-2029,73080,2029,OK,McClain County
373,Dibble Head Start,"DELTA COMMUNITY ACTION
308 SW 2nd Street
Lindsay, OK 73052-5404
(405)756-1100
",Head Start,(405) 344-7295,100 Main Street,Dibble,OK,73031,73031,,OK,McClain County
374,Marlow Head Start/Chatterbox Child Care,"DELTA COMMUNITY ACTION
308 SW 2nd Street
Lindsay, OK 73052-5404
(405)756-1100
",Head Start,(580) 658-1000,503 E Main St,Marlow,OK,73055-3602,73055,3602,OK,Stephens County
375,Chickasha Head Start,"WASHITA VALLEY COMMUNITY ACTION COUNCIL, INC
1000 W Minnesota Ave
Chickasha, OK 73018-3254
(405)224-5831 - 115
",Early Head Start,(405) 222-0172,1000 W Minnesota Ave,Chickasha,OK,73018-3254,73018,3254,OK,Grady County
376,NACT Head Start  Campus 97,"NATIVE AMERICAN COALITION OF TULSA
4935 S Union Ave
Tulsa, OK 74107-7839
(918)446-7939
",Early Head Start,(918) 514-4327,5550 S Highway 97,Sand Springs,OK,74063-3711,74063,3711,OK,Tulsa County
377,Ponca City Early Head Start,"United Community Action Program, Inc.
501 6th St
Pawnee, OK 74058-2542
(918)762-2561 - 164
",Early Head Start,(580) 765-1173,427 S Ash St,Ponca City,OK,74601-5902,74601,5902,OK,Kay County
378,Santa Fe South Charter,"CMTY ACTION AGCY OF OK CY & CTY & OK/CANADIAN CTYS INC
319 SW 25th St
Oklahoma City, OK 73109-5921
(405)232-0199 - 4103
",Head Start,(405) 601-0597,2222 SW 44th St,Oklahoma City,OK,73119-3526,73119,3526,OK,Oklahoma County
379,Carney Head Start,"Wewoka Public Schools Co-op Head Start
220 S Wewoka Ave
Wewoka, OK 74884-2640
(405)257-2321
",Head Start,(405) 865-2344,"PO Box 240
204 S. Carney St.",Carney,OK,74832-0240,74832,0240,OK,Lincoln County
380,Butner Head Start,"Wewoka Public Schools Co-op Head Start
220 S Wewoka Ave
Wewoka, OK 74884-2640
(405)257-2321
",Head Start,(405) 944-5526,"PO Box 157
Hwy 56 and Yahola",Cromwell,OK,74837-0157,74837,0157,OK,Seminole County
381,Sasakwa Head Start,"Wewoka Public Schools Co-op Head Start
220 S Wewoka Ave
Wewoka, OK 74884-2640
(405)257-2321
",Head Start,(405) 941-3250,106 Olive St,Sasakwa,OK,74867-6757,74867,6757,OK,Seminole County
382,Adventure Time Learning Center,"Big Five Community Services, Inc.
1502 N. 1st
Durant, OK 74701-2814
(580)924-5331
",Early Head Start,(580) 227-3400,720 Cedar Springs Rd,Fairview,OK,73737-9519,73737,9519,OK,Major County
383,MCALESTER - WASHINGTON,"KI BOIS COMMUNITY ACTION FOUNDATION, INC
200 SE A St
Stigler, OK 74462-2418
(918)967-3325
",Head Start,(918) 423-0265,700 S 6th St,McAlester,OK,74501-6617,74501,6617,OK,Pittsburg County
384,Ada Early Childhood Center,"Big Five Community Services, Inc.
1502 N 1st Ave
Durant, OK 74701-2814
(580)924-5331
",Head Start,(580) 332-8233,630 W 33rd St,Ada,OK,74820-8621,74820,8621,OK,Pontotoc County
385,Otoe-Missouria Tribal Head Start,"OTOE-MISSOURIA TRIBAL COUNCIL
8151 Highway 177
Red Rock, OK 74651-0348
(580)723-4466 - 226
",American Indian and Alaska Native Head Start,(580) 723-4466,8151 Highway 177,Red Rock,OK,74651-0348,74651,0348,OK,Noble County
386,Tishomingo Head Start,"The Chickasaw Nation Head Start
300 Rosedale Road
Ada, OK 74820-
(580)421-7711
",American Indian and Alaska Native Head Start,(580) 371-3216,803 E 6th St,Tishomingo,OK,73460-1800,73460,1800,OK,Johnston County
387,Sulphur Head Start Center,"The Chickasaw Nation Head Start
300 Rosedale Road
Ada, OK 74820-
(580)421-7711
",American Indian and Alaska Native Head Start,(580) 622-6200,1201 W 9th St,Sulphur,OK,73086-3639,73086,3639,OK,Murray County
388,Ardmore Head Start Center,"The Chickasaw Nation Head Start
300 Rosedale Road
Ada, OK 74820-
(580)421-7711
",American Indian and Alaska Native Head Start,(580) 223-6276,825 Locust St,Ardmore,OK,73401-1317,73401,1317,OK,Carter County
389,Hennessey Head Start,"Big Five Community Services, Inc.
1502 N. 1st
Durant, OK 74701-2814
(580)924-5331
",Head Start,(405) 853-4664,520 Cherokee,Hennessey,OK,73742,73742,,OK,Kingfisher County
390,Medford Early Head Start,"Big Five Community Services, Inc.
1502 N. 1st
Durant, OK 74701-2814
(580)924-5331
",Head Start,(580) 395-3327,407 N 2nd St,Medford,OK,73759-1106,73759,1106,OK,Grant County
391,Hennessey Early Head Start,"Big Five Community Services, Inc.
1502 N. 1st
Durant, OK 74701-2814
(580)924-5331
",Head Start,(405) 853-4453,520 S Cherokee St,Hennessey,OK,73742-1827,73742,1827,OK,Kingfisher County
392,Enid Park Place,"Big Five Community Services, Inc.
1502 N. 1st
Durant, OK 74701-2814
(580)924-5331
",Head Start,(580) 234-5656,306 W Park Ave,Enid,OK,73701-5644,73701,5644,OK,Garfield County
393,Hennessey Public School (Collaboration),"Big Five Community Services, Inc.
1502 N. 1st
Durant, OK 74701-2814
(580)924-5331
",Head Start,,707 E Oklahoma St,Hennessey,OK,73742-1646,73742,1646,OK,Kingfisher County
394,Briarglen,"Community Action Project of Tulsa County, Inc.
4606 S Garnett Rd Ste 100
Tulsa, OK 74146-5216
(918)382-3200
",Early Head Start,(918) 938-6600,3303 S 121st East Ave,Tulsa,OK,74146-2227,74146,2227,OK,Tulsa County
395,Rosa Parks ECEC,"Community Action Project of Tulsa County, Inc.
4606 S Garnett Rd Ste 100
Tulsa, OK 74146-5216
(918)382-3200
",Early Head Start,(918) 286-0660,13804 E 46th Pl,Tulsa,OK,74134-5983,74134,5983,OK,Tulsa County
396,Delaware Child Development,"Delaware Tribe of Indians
5110 Tuxedo Blvd
Bartlesville, OK 74006-2838
(918)766-5775
",Early Head Start,(918) 977-3600,5110 Tuxedo Blvd,Bartlesville,OK,74006-2838,74006,2838,OK,Washington County
397,Gans Head Start,"KI BOIS COMMUNITY ACTION FOUNDATION, INC
200 SE A St
Stigler, OK 74462-2418
(918)967-3325
",Head Start,(918) 235-0801,Hwy 141 S,Gans,OK,74936,74936,,OK,Sequoyah County
398,Roland Head Start,"KI BOIS COMMUNITY ACTION FOUNDATION, INC
200 SE A St
Stigler, OK 74462-2418
(918)967-3325
",Head Start,(918) 427-1500,300 Ranger Blvd,Roland,OK,74954-4040,74954,4040,OK,Sequoyah County
399,Sallisaw Head Start,"KI BOIS COMMUNITY ACTION FOUNDATION, INC
200 SE A St
Stigler, OK 74462-2418
(918)967-3325
",Head Start,(918) 775-4000,603 E Choctaw Ave,Sallisaw,OK,74955-4817,74955,4817,OK,Sequoyah County
400,Tahlequah South Head Start,"KI BOIS COMMUNITY ACTION FOUNDATION, INC
200 SE A St
Stigler, OK 74462-2418
(918)967-3325
",Head Start,(918) 456-8900,1400 Hensley Dr,Tahlequah,OK,74464-5221,74464,5221,OK,Cherokee County
401,Tenkiller Head Start,"KI BOIS COMMUNITY ACTION FOUNDATION, INC
200 SE A St
Stigler, OK 74462-2418
(918)967-3325
",Head Start,(918) 457-5700,26106 E 863 Rd,Welling,OK,74471-2273,74471,2273,OK,Cherokee County
402,Checotah Head Start,"KI BOIS COMMUNITY ACTION FOUNDATION, INC
200 SE A St
Stigler, OK 74462-2418
(918)967-3325
",Head Start,(918) 473-5272,214 SE 2nd St,Checotah,OK,74426-4004,74426,4004,OK,McIntosh County
403,Keys Head Start,"KI BOIS COMMUNITY ACTION FOUNDATION, INC
200 SE A St
Stigler, OK 74462-2418
(918)967-3325
",Head Start,(918) 575-1084,19061 E 840 Rd,Park Hill,OK,74451-4105,74451,4105,OK,Cherokee County
404,Vian Head Start,"KI BOIS COMMUNITY ACTION FOUNDATION, INC
200 SE A St
Stigler, OK 74462-2418
(918)967-3325
",Head Start,(918) 773-5449,100 Victory Lane,Vian,OK,74962,74962,,OK,Sequoyah County
405,Liberty Head Start,"KI BOIS COMMUNITY ACTION FOUNDATION, INC
200 SE A St
Stigler, OK 74462-2418
(918)967-3325
",Head Start,(918) 427-5980,476490 E 1060 Rd,Muldrow,OK,74948-5159,74948,5159,OK,Sequoyah County
406,Briggs Head Start,"KI BOIS COMMUNITY ACTION FOUNDATION, INC
200 SE A St
Stigler, OK 74462-2418
(918)967-3325
",Head Start,(918) 207-1188,17210 S 569 Rd,Tahlequah,OK,74464-1812,74464,1812,OK,Cherokee County
407,Muldrow Head Start,"KI BOIS COMMUNITY ACTION FOUNDATION, INC
200 SE A St
Stigler, OK 74462-2418
(918)967-3325
",Head Start,(918) 427-3888,301 S Main St,Muldrow,OK,74948-4721,74948,4721,OK,Sequoyah County
408,Tahlequah West Head Start,"KI BOIS COMMUNITY ACTION FOUNDATION, INC
200 SE A St
Stigler, OK 74462-2418
(918)967-3325
",Head Start,(918) 456-5050,17200 N Bryant Rd,Tahlequah,OK,74464-1393,74464,1393,OK,Cherokee County
409,Westville Head Start,"KI BOIS COMMUNITY ACTION FOUNDATION, INC
200 SE A St
Stigler, OK 74462-2418
(918)967-3325
",Head Start,(918) 723-3900,Buffington Rd,Westville,OK,74965,74965,,OK,Adair County
410,Woodall Head Start,"KI BOIS COMMUNITY ACTION FOUNDATION, INC
200 SE A St
Stigler, OK 74462-2418
(918)967-3325
",Head Start,(918) 207-0621,14090 W 835 Rd,Tahlequah,OK,74464-1415,74464,1415,OK,Cherokee County
411,Marble City Head Start,"KI BOIS COMMUNITY ACTION FOUNDATION, INC
200 SE A St
Stigler, OK 74462-2418
(918)967-3325
",Head Start,(918) 235-0833,95266 S 4610,Marble City,OK,74645,74645,,,
412,Grandview Head Start,"KI BOIS COMMUNITY ACTION FOUNDATION, INC
200 SE A St
Stigler, OK 74462-2418
(918)967-3325
",Head Start,(918) 207-0705,15481 N Jarvis Rd,Tahlequah,OK,74464-0233,74464,0233,OK,Cherokee County
413,Ryal,"KI BOIS COMMUNITY ACTION FOUNDATION, INC
200 SE A St
Stigler, OK 74462-2418
(918)967-3325
",Head Start,(918) 650-9471,115035 S 39360 Rd,Henryetta,OK,74437,74437,,OK,Okmulgee County
414,Briarglen,"Community Action Project of Tulsa County (CAP)
4606 S Garnett Rd Ste 100
Tulsa, OK 74146-5216
(918)382-3200
",Head Start,(918) 938-6600,3303 S 121st East Ave,Tulsa,OK,74146-2227,74146,2227,OK,Tulsa County
415,Briarglen,"Community Action Project of Tulsa County (CAP)
4606 S Garnett Rd Ste 100
Tulsa, OK 74146-5216
(918)382-3200
",Early Head Start,(918) 938-6600,3303 S 121st East Ave,Tulsa,OK,74146-2227,74146,2227,OK,Tulsa County
416,Educare Oklahoma City,"SUNBEAM FAMILY SERVICES, INC.
1100 NW 14th St
Oklahoma City, OK 73106-4450
(405)528-7721
",Early Head Start,(405) 605-8232,500 SE Grand Blvd,Oklahoma City,OK,73129-4948,73129,4948,OK,Oklahoma County
417,Noble Head Start/Early Head Start,"Crossroads Youth & Family Services, Inc.
Crossroads Early Head Start
1333 West Main Street
Norman, OK 73069-6864
(405)292-6440 - 340
",Early Head Start,(405) 872-1713,204 N Main St,Noble,OK,73068-9350,73068,9350,OK,Cleveland County
418,Union Street Head Start/Early Head Start,"Crossroads Youth & Family Services, Inc.
Crossroads Early Head Start
1333 West Main Street
Norman, OK 73069-6864
(405)292-6440 - 340
",Early Head Start,(405) 214-4323,501 N Union Ave,Shawnee,OK,74801-7057,74801,7057,OK,Pottawatomie County
419,Beginnings Academy,"Crossroads Youth & Family Services, Inc.
Crossroads Early Head Start
1333 West Main Street
Norman, OK 73069-6864
(405)292-6440 - 340
",Early Head Start,(580) 354-9865,501 NW Woodridge Dr,Lawton,OK,73507-2265,73507,2265,OK,Comanche County
420,Cherokee Elementary,"Green Country Behavioral Health Services, Inc.
619 N Main St
Muskogee, OK 74401-4431
(918)687-6611
",Head Start,(918) 684-3890,2400 Estelle Ave,Muskogee,OK,74401-5657,74401,5657,OK,Muskogee County
421,Grant Foreman Elementary,"Green Country Behavioral Health Services, Inc.
619 N Main St
Muskogee, OK 74401-4431
(918)687-6611
",Head Start,(918) 684-3860,800 S Bacone St,Muskogee,OK,74403-7505,74403,7505,OK,Muskogee County
422,Little Okie Academy,"Green Country Behavioral Health Services, Inc.
619 N Main St
Muskogee, OK 74401-4431
(918)687-6611
",Early Head Start,,1313 N Main St,Muskogee,OK,74401-4445,74401,4445,OK,Muskogee County
423,Drumright Head Start Child Development Center,"United Community Action Program, Inc.
501 6th St
Pawnee, OK 74058-2542
(918)762-2561 - 164
",Head Start,(918) 729-0903,301 E Stiner St,Drumright,OK,74030-2243,74030,2243,OK,Creek County
424,Frederick Head Start,"COMMUNITY ACTION DEVELOPMENT CORPORATION
400 N Randlett St
Hobart, OK 73651-1636
(580)726-3343
",Early Head Start,(580) 335-5644,521 E Gladstone Ave,Frederick,OK,73542-4437,73542,4437,OK,Tillman County
425,Hobart Head Start,"COMMUNITY ACTION DEVELOPMENT CORPORATION
400 N Randlett St
Hobart, OK 73651-1636
(580)726-3343
",Early Head Start,(580) 726-3648,400B N Randlett St,Hobart,OK,73651-1636,73651,1636,OK,Kiowa County
426,Yellow Earth Learning center,"Central Tribes of the Shawnee Area, Inc.
1535 N Mckinley Ave
Shawnee, OK 74801-5200
(405)273-4415
",American Indian and Alaska Native Head Start,(405) 915-8906,930085 S 3562 Rd,Stroud,OK,74079,74079,,OK,Lincoln County
427,Allen Head Start (Public School),"Big Five Community Services, Inc.
1502 N 1st Ave
Durant, OK 74701-2814
(580)924-5331
",Head Start,(580) 857-2419,105 N Denver,Allen,OK,74825,74825,,OK,Pontotoc County
428,Childcare Network,"CMTY ACTION AGCY OF OK CY & CTY & OK/CANADIAN CTYS INC
319 SW 25th St
Oklahoma City, OK 73109-5921
(405)232-0199 - 4103
",Head Start,(405) 634-2083,1050 SW 36th Street,Oklahoma City,OK,73109-2923,73109,2923,OK,Oklahoma County
429,North Highland Elementary,"CMTY ACTION AGCY OF OK CY & CTY & OK/CANADIAN CTYS INC
319 SW 25th St
Oklahoma City, OK 73109-5921
(405)232-0199 - 4103
",Head Start,(405) 587-6250,8400 N Robinson Ave,Oklahoma City,OK,73114-3325,73114,3325,OK,Oklahoma County
430,Spencer Elementary,"CMTY ACTION AGCY OF OK CY & CTY & OK/CANADIAN CTYS INC
319 SW 25th St
Oklahoma City, OK 73109-5921
(405)232-0199 - 4103
",Head Start,(405) 587-8600,8900 NE 50th St,Spencer,OK,73084-1411,73084,1411,OK,Oklahoma County
431,Thelma Parks Elementary,"CMTY ACTION AGCY OF OK CY & CTY & OK/CANADIAN CTYS INC
319 SW 25th St
Oklahoma City, OK 73109-5921
(405)232-0199 - 4103
",Head Start,(405) 587-4400,1501 NE 30th St,Oklahoma City,OK,73111-4101,73111,4101,OK,Oklahoma County
432,TISHOMINGO HEAD START,"INCA COMMUNITY SERVICES, INC
202 S Capital Ave
Tishomingo, OK 73460-1605
(580)371-2352 - 258
",Early Head Start,(580) 371-3680,304 W 7th St,Tishomingo,OK,73460-1209,73460,1209,OK,Johnston County
433,Sulphur HEAD START,"INCA COMMUNITY SERVICES, INC
202 S Capital Ave
Tishomingo, OK 73460-1605
(580)371-2352 - 258
",Early Head Start,(580) 622-5206,1220 W 9th St,Sulphur,OK,73086-3612,73086,3612,OK,Murray County
434,Southwest Child Development Center,"SUNBEAM FAMILY SERVICES INC
1100 NW 14th St
Oklahoma City, OK 73106-4450
(405)528-7721
",Early Head Start,(405) 631-1466,830 SW 31st St,Oklahoma City,OK,73109-2419,73109,2419,OK,Oklahoma County
435,Little Hearts Learning Center,"SUNBEAM FAMILY SERVICES INC
1100 NW 14th St
Oklahoma City, OK 73106-4450
(405)528-7721
",Early Head Start,(405) 879-4266,913 NW 92nd St,Oklahoma City,OK,73114-2703,73114,2703,OK,Oklahoma County
436,"U.S Grant High School, OKCPS, Little Generals Child Care Center","SUNBEAM FAMILY SERVICES INC
1100 NW 14th St
Oklahoma City, OK 73106-4450
(405)528-7721
",Early Head Start,(405) 774-3727,5016 S Pennsylvania Ave,Oklahoma City,OK,73119-4932,73119,4932,OK,Oklahoma County
437,Educare Oklahoma City,"SUNBEAM FAMILY SERVICES INC
1100 NW 14th St
Oklahoma City, OK 73106-4450
(405)528-7721
",Early Head Start,(405) 605-8232,500 SE Grand Blvd,Oklahoma City,OK,73129-4948,73129,4948,OK,Oklahoma County
438,"Tony Reyes Bilingual Child Development Center, LCDA","SUNBEAM FAMILY SERVICES INC
1100 NW 14th St
Oklahoma City, OK 73106-4450
(405)528-7721
",Early Head Start,(405) 236-4667,5716 S Western Ave,Oklahoma City,OK,73109-4515,73109,4515,OK,Oklahoma County
439,PLAY HARD / LEARNING + FITNESS,"Community Action Project of Tulsa County, Inc.
4606 S Garnett Rd Ste 100
Tulsa, OK 74146-5216
(918)382-3200
",Early Head Start,(918) 576-6788,8730 E Skelly Dr,Tulsa,OK,74129-3422,74129,3422,OK,Tulsa County
440,Mustang Head Start,"Big Five Community Services, Inc.
1502 N. 1st
Durant, OK 74701-2814
(580)924-5331
",Head Start,(405) 256-6912,451 N Clear Springs Rd,Mustang,OK,73064-1520,73064,1520,OK,Canadian County
441,Children's Village,"Cherokee Nation Early Childhood Unit
17675 S Muskogee Ave
Tahlequah, OK 74464-5492
(918)453-5757 - 5727
",American Indian and Alaska Native Head Start,(918) 453-5757,16944 W Cherokee,Tahlequah,OK,74464-5539,74464,5539,OK,Cherokee County
442,Children's Village,"Cherokee Nation Early Head Start
17675 S Muskogee Ave
Tahlequah, OK 74464-5492
(918)453-5757 - 5727
",American Indian and Alaska Native Head Start,(918) 453-5757,16944 W Cherokee,Tahlequah,OK,74464-5539,74464,5539,OK,Cherokee County
443,Bright Beginnings,"Delaware Tribe of Indians
5110 Tuxedo Blvd
Bartlesville, OK 74006-2838
(918)766-5775
",Early Head Start,(918) 342-6100,2550 Holly Rd,Claremore,OK,74017-8514,74017,8514,OK,Rogers County
444,Pauls Valley @The Corner,"DELTA COMMUNITY ACTION
308 SW 2nd Street
Lindsay, OK 73052-5404
(405)756-1100
",Head Start,(405) 207-9013,309 E Charles Ave,Pauls Valley,OK,73075-4201,73075,4201,OK,Garvin County
445,Pauls Valley @The Corner,"Delta Community Action Foundation, Inc.
308 SW 2nd Street
Lindsay, OK 73052-
(405)756-1100
",Early Head Start,(405) 207-9013,309 E Charles Ave,Pauls Valley,OK,73075-4201,73075,4201,OK,Garvin County
446,Whitebead Head Start,"DELTA COMMUNITY ACTION
308 SW 2nd Street
Lindsay, OK 73052-5404
(405)756-1100
",Head Start,(405) 238-3021,16476 N County Road 3200,Pauls Valley,OK,73075-8601,73075,8601,OK,Garvin County
447,NACT Head Start West Campus,"NATIVE AMERICAN COALITION OF TULSA
4935 S Union Ave
Tulsa, OK 74107-7839
(918)446-7939
",Early Head Start,(918) 446-7939,4935 S Union Ave,Tulsa,OK,74107-7839,74107,7839,OK,Tulsa County
448,Tah-Je Do-Weh Che Child Development,"Iowa Tribe of Oklahoma
335164 East 750 Rd
Perkins, OK 74059-
(405)547-2402
",American Indian and Alaska Native Head Start,(405) 547-5826,335164 E 750 Rd,Perkins,OK,74059-3276,74059,3276,OK,Payne County
449,Atoka Head Start #1--Elementary School,"INCA COMMUNITY SERVICES, INC
202 S Capital Ave
Tishomingo, OK 73460-1605
(580)371-2352 - 258
",Head Start,(580) 889-6611,1680 S Greathouse Drive,Atoka,OK,74525,74525,,OK,Atoka County
450,CDI HS MS - OK - ANADARKO,"CDI HS/Multi-State Migrant and Seasonal
5215 McPherson Rd
Fl 2
Laredo, TX 78041-7324
(956)992-1034
",Head Start,(405) 400-8224,301 W Broadway St,Anadarko,OK,73005-2421,73005,2421,OK,Caddo County
451,CDI HS MS - OK - Tahlequah,"CDI HS/Multi-State Migrant and Seasonal
5215 McPherson Rd
Fl 2
Laredo, TX 78041-7324
(956)992-1034
",Head Start,(918) 236-5487,"351 Academy St
Ste D",Tahlequah,OK,74464-2660,74464,2660,OK,Cherokee County
452,LEFLORE,"KI BOIS COMMUNITY ACTION FOUNDATION, INC
200 SE A St
Stigler, OK 74462-2418
(918)967-3325
",Head Start,(918) 753-2284,100 S Booth,Leflore,OK,74966,74966,,OK,Le Flore County
453,Bristow Head Start/Early Head Start,"United Community Action Program, Inc.
501 6th St
Pawnee, OK 74058-2542
(918)762-2561 - 164
",Head Start,(918) 367-1107,1002 S Chestnut St,Bristow,OK,74010-3706,74010,3706,OK,Creek County
454,Bristow Head Start/Early Head Start,"United Community Action Program, Inc.
501 6th St
Pawnee, OK 74058-2542
(918)762-2561 - 164
",Early Head Start,(918) 367-1107,1002 S Chestnut St,Bristow,OK,74010-3706,74010,3706,OK,Creek County
455,Laverne Early Head Start,"Big Five Community Services, Inc.
1502 N. 1st
Durant, OK 74701-2814
(580)924-5331
",Early Head Start,(580) 921-7701,202 S Kansas,Laverne,OK,73848,73848,,OK,Harper County
456,C.A.R.D. Dewey Head Start,"COMMUNITY ACTION RESOURCE AND DEVELOPMENT, INC.
707 W Lowry Rd
Ste 102
Claremore, OK 74017-2109
(918)341-5000 - 324
",Head Start,(918) 534-1144,414 N Sequoyah Ave,Dewey,OK,74029-2028,74029,2028,OK,Washington County
457,C.A.R.D. Wagoner I-2 Head Start,"COMMUNITY ACTION RESOURCE AND DEVELOPMENT, INC.
707 W Lowry Rd
Ste 102
Claremore, OK 74017-2109
(918)341-5000 - 324
",Head Start,(918) 798-3351,108 N Moss Ave,Wagoner,OK,74467-4314,74467,4314,OK,Wagoner County
458,Bartlesville Early Learning Center,"COMMUNITY ACTION RESOURCE AND DEVELOPMENT, INC.
707 W Lowry Rd
Ste 102
Claremore, OK 74017-2109
(918)341-5000 - 324
",Head Start,(918) 337-9355,513 S Quapaw Ave,Bartlesville,OK,74003-4331,74003,4331,OK,Osage County
459,C.A.R.D. Catoosa Spunky 1-2 Head Start,"COMMUNITY ACTION RESOURCE AND DEVELOPMENT, INC.
707 W Lowry Rd
Ste 102
Claremore, OK 74017-2109
(918)341-5000 - 324
",Head Start,(918) 266-6161,2607 N Highway 66,Catoosa,OK,74015-2323,74015,2323,OK,Rogers County
460,C.A.R.D. Bartlesville East II Head Start,"COMMUNITY ACTION RESOURCE AND DEVELOPMENT, INC.
707 W Lowry Rd
Ste 102
Claremore, OK 74017-2109
(918)341-5000 - 324
",Head Start,(918) 333-0776,3618 Tuxedo Blvd,Bartlesville,OK,74006-2329,74006,2329,OK,Washington County
461,C.A.R.D. Bartlesville West I & II Head Start,"COMMUNITY ACTION RESOURCE AND DEVELOPMENT, INC.
707 W Lowry Rd
Ste 102
Claremore, OK 74017-2109
(918)341-5000 - 324
",Head Start,(918) 336-6744,401 SW Cass Ave,Bartlesville,OK,74003-3126,74003,3126,OK,Osage County
462,C.A.R.D. Catoosa  Head Start Public,"COMMUNITY ACTION RESOURCE AND DEVELOPMENT, INC.
707 W Lowry Rd
Ste 102
Claremore, OK 74017-2109
(918)341-5000 - 324
",Head Start,(918) 266-8643,2000 S Cherokee St,Catoosa,OK,74015-3232,74015,3232,OK,Rogers County
463,C.A.R.D. Coweta I-2 Head Start,"COMMUNITY ACTION RESOURCE AND DEVELOPMENT, INC.
707 W Lowry Rd
Ste 102
Claremore, OK 74017-2109
(918)341-5000 - 324
",Head Start,(918) 486-6656,211 S Broadway,Coweta,OK,74429-4103,74429,4103,OK,Wagoner County
464,C.A.R.D. Claremore I - 2 Head Start,"COMMUNITY ACTION RESOURCE AND DEVELOPMENT, INC.
707 W Lowry Rd
Ste 102
Claremore, OK 74017-2109
(918)341-5000 - 324
",Head Start,(918) 342-8996,1701 N Lynn Riggs Blvd,Claremore,OK,74017-3056,74017,3056,OK,Rogers County
465,C.A.R.D. Chelsea Head Start,"COMMUNITY ACTION RESOURCE AND DEVELOPMENT, INC.
707 W Lowry Rd
Ste 102
Claremore, OK 74017-2109
(918)341-5000 - 324
",Head Start,(918) 789-2984,6205 Hwy 28,Chelsea,OK,74016-2080,74016,2080,OK,Rogers County
466,C.A.R.D. Locust Grove  Head Start,"COMMUNITY ACTION RESOURCE AND DEVELOPMENT, INC.
707 W Lowry Rd
Ste 102
Claremore, OK 74017-2109
(918)341-5000 - 324
",Head Start,(918) 479-5233,695 E Joe Koelsch Dr,Locust Grove,OK,74352-2061,74352,2061,OK,Mayes County
467,Bartlesville Early Learning Center,"COMMUNITY ACTION RESOURCE AND DEVELOPMENT, INC.
707 W Lowry Rd
Ste 102
Claremore, OK 74017-2109
(918)341-5000
",Early Head Start,(918) 337-9355,513 S Quapaw Ave,Bartlesville,OK,74003-4331,74003,4331,OK,Osage County
468,C.A.R.D. Bartlesville East I Head Start,"COMMUNITY ACTION RESOURCE AND DEVELOPMENT, INC.
707 W Lowry Rd
Ste 102
Claremore, OK 74017-2109
(918)341-5000 - 324
",Head Start,(918) 335-3000,117 N Cholwell Ave,Bartlesville,OK,74006-1602,74006,1602,OK,Washington County
469,CARD Broken Arrow Early Head Start,"COMMUNITY ACTION RESOURCE AND DEVELOPMENT, INC.
707 W Lowry Rd
Ste 102
Claremore, OK 74017-2109
(918)341-5000
",Early Head Start,(918) 451-7113,411 W New Orleans Street,Broken Arrow,OK,74011-2218,74011,2218,OK,Tulsa County
470,Pryor South EHS,"COMMUNITY ACTION RESOURCE AND DEVELOPMENT, INC.
707 W Lowry Rd
Ste 102
Claremore, OK 74017-2109
(918)341-5000 - 324
",Head Start,(918) 825-2240,4201 Armin Rd,Pryor,OK,74361-3311,74361,3311,OK,Mayes County
471,C.A.R.D. Pryor Central I-2 Head Start,"COMMUNITY ACTION RESOURCE AND DEVELOPMENT, INC.
707 W Lowry Rd
Ste 102
Claremore, OK 74017-2109
(918)341-5000 - 324
",Head Start,(918) 825-4582,708 SE 1st St,Pryor,OK,74361-4616,74361,4616,OK,Mayes County
472,Porter Head Start,"COMMUNITY ACTION RESOURCE AND DEVELOPMENT, INC.
707 W Lowry Rd
Ste 102
Claremore, OK 74017-2109
(918)341-5000 - 324
",Head Start,(918) 483-5231,125 S Main,Porter,OK,74454,74454,,OK,Wagoner County
473,Southside Head Start,"COMMUNITY ACTION RESOURCE AND DEVELOPMENT, INC.
707 W Lowry Rd
Ste 102
Claremore, OK 74017-2109
(918)341-5000 - 324
",Head Start,(918) 258-3464,509 W Houston St,Broken Arrow,OK,74012-5348,74012,5348,OK,Tulsa County
474,Nowata A-Z learning center,"COMMUNITY ACTION RESOURCE AND DEVELOPMENT, INC.
707 W Lowry Rd
Ste 102
Claremore, OK 74017-2109
(918)341-5000 - 324
",Head Start,(918) 273-9105,100 Lanape Rd,Nowata,OK,74048,74048,,OK,Nowata County
475,C.A.R.D. Pryor Central I-2 Head Start,"COMMUNITY ACTION RESOURCE AND DEVELOPMENT, INC.
707 W Lowry Rd
Ste 102
Claremore, OK 74017-2109
(918)341-5000
",Early Head Start,(918) 825-7172,708 SE 1st St,Pryor,OK,74361-4616,74361,4616,OK,Mayes County
476,C.A.R.D. Catoosa Spunky 1-2 Head Start,"COMMUNITY ACTION RESOURCE AND DEVELOPMENT, INC.
707 W Lowry Rd
Ste 102
Claremore, OK 74017-2109
(918)341-5000
",Early Head Start,(918) 266-6624,2607 N Highway 66,Catoosa,OK,74015-2323,74015,2323,OK,Rogers County
477,C.A.R.D. Wagoner I-2 Head Start,"COMMUNITY ACTION RESOURCE AND DEVELOPMENT, INC.
707 W Lowry Rd
Ste 102
Claremore, OK 74017-2109
(918)341-5000
",Early Head Start,(918) 485-6205,108 N Moss Ave,Wagoner,OK,74467-4314,74467,4314,OK,Wagoner County
478,Pryor South EHS,"COMMUNITY ACTION RESOURCE AND DEVELOPMENT, INC.
707 W Lowry Rd
Ste 102
Claremore, OK 74017-2109
(918)341-5000
",Early Head Start,(918) 825-4601,4201 Armin Rd,Pryor,OK,74361-3311,74361,3311,OK,Mayes County
479,Southside Head Start,"COMMUNITY ACTION RESOURCE AND DEVELOPMENT, INC.
707 W Lowry Rd
Ste 102
Claremore, OK 74017-2109
(918)341-5000
",Early Head Start,(918) 258-3464,509 W Houston St,Broken Arrow,OK,74012-5348,74012,5348,OK,Tulsa County
480,SALLISAW EARLY HEAD START,"KI BOIS COMMUNITY ACTION FOUNDATION, INC
200 SE A St
Stigler, OK 74462-2418
(918)967-3325
",Early Head Start,(918) 774-0801,305 S Walnut St,Sallisaw,OK,74955-5809,74955,5809,OK,Sequoyah County
481,Boswell I & II,"LITTLE DIXIE COMMUNITY ACTION AGENCY, INC
104 N E St
Hugo, OK 74743-3218
(580)326-7581
",Head Start,(580) 566-2729,604 7th Street,Boswell,OK,74727,74727,,OK,Choctaw County
482,"Horace Mann I, II & III","LITTLE DIXIE COMMUNITY ACTION AGENCY, INC
104 N E St
Hugo, OK 74743-3218
(580)326-7581
",Head Start,(580) 326-2161,400 S K St,Hugo,OK,74743-5816,74743,5816,OK,Choctaw County
483,Ft. Towson,"LITTLE DIXIE COMMUNITY ACTION AGENCY, INC
104 N E St
Hugo, OK 74743-3218
(580)326-7581
",Head Start,(580) 873-2259,"PO Box 44
604 W Boston",Fort Towson,OK,74735-0044,74735,0044,OK,Choctaw County
484,"Idabel I, II, & III","LITTLE DIXIE COMMUNITY ACTION AGENCY, INC
104 N E St
Hugo, OK 74743-3218
(580)326-7581
",Head Start,(580) 286-5609,1203 SE Quincy St,Idabel,OK,74745-6630,74745,6630,OK,McCurtain County
485,Broken Bow I,"LITTLE DIXIE COMMUNITY ACTION AGENCY, INC
104 N E St
Hugo, OK 74743-3218
(580)326-7581
",Head Start,(580) 584-6946,1008 N Park Dr,Broken Bow,OK,74728-2150,74728,2150,OK,McCurtain County
486,Soper I & II,"LITTLE DIXIE COMMUNITY ACTION AGENCY, INC
104 N E St
Hugo, OK 74743-3218
(580)326-7581
",Head Start,(580) 345-2535,711 Louis Street,Soper,OK,74759,74759,,OK,Choctaw County
487,Hugo  IV,"LITTLE DIXIE COMMUNITY ACTION AGENCY, INC
104 N E St
Hugo, OK 74743-3218
(580)326-7581
",Head Start,(580) 326-7360,1119 S 8th St,Hugo,OK,74743-8001,74743,8001,OK,Choctaw County
488,Hugo II,"LITTLE DIXIE COMMUNITY ACTION AGENCY, INC
104 N E St
Hugo, OK 74743-3218
(580)326-7581
",Head Start,(580) 326-3781,113 W Lowery St,Hugo,OK,74743-6847,74743,6847,OK,Choctaw County
489,Rattan II & III,"LITTLE DIXIE COMMUNITY ACTION AGENCY, INC
104 N E St
Hugo, OK 74743-3218
(580)326-7581
",Head Start,(580) 587-2715,100 W Main St,Rattan,OK,74562-7103,74562,7103,OK,Pushmataha County
490,Valliant I & II,"LITTLE DIXIE COMMUNITY ACTION AGENCY, INC
104 N E St
Hugo, OK 74743-3218
(580)326-7581
",Head Start,(580) 933-4161,311 East Harris,Valliant,OK,74764-9017,74764,9017,OK,McCurtain County
491,Battiest,"LITTLE DIXIE COMMUNITY ACTION AGENCY, INC
104 N E St
Hugo, OK 74743-3218
(580)326-7581
",Head Start,(580) 241-5210,100 S Main St,Battiest,OK,74722-9800,74722,9800,OK,McCurtain County
492,Broken Bow III,"LITTLE DIXIE COMMUNITY ACTION AGENCY, INC
104 N E St
Hugo, OK 74743-3218
(580)326-7581
",Head Start,(580) 584-6956,409 N Broadway St,Broken Bow,OK,74728-2941,74728,2941,OK,McCurtain County
493,Clayton I & II,"LITTLE DIXIE COMMUNITY ACTION AGENCY, INC
104 N E St
Hugo, OK 74743-3218
(580)326-7581
",Head Start,(918) 569-7741,100 Pine Street,Clayton,OK,74536,74536,,OK,Pushmataha County
494,Rattan 1,"LITTLE DIXIE COMMUNITY ACTION AGENCY, INC
104 N E St
Hugo, OK 74743-3218
(580)326-7581
",Head Start,(580) 587-2592,OK HWY 93,Rattan,OK,74562,74562,,OK,Pushmataha County
495,Idabel Early Head Start,"LITTLE DIXIE COMMUNITY ACTION AGENCY, INC
104 N E Street
Hugo, OK 74743-
(580)326-7581
",Early Head Start,(580) 208-2517,1203 SE Quincy St,Idabel,OK,74745-6630,74745,6630,OK,McCurtain County
496,Antlers Early Head Start,"LITTLE DIXIE COMMUNITY ACTION AGENCY, INC
104 N E Street
Hugo, OK 74743-
(580)326-7581
",Early Head Start,(580) 298-6405,611 SW B St,Antlers,OK,74523-3830,74523,3830,OK,Pushmataha County
497,Hugo Early Head Start,"LITTLE DIXIE COMMUNITY ACTION AGENCY, INC
104 N E Street
Hugo, OK 74743-
(580)326-7581
",Early Head Start,(580) 326-0709,107 S 15th St,Hugo,OK,74743-4254,74743,4254,OK,Choctaw County
498,Forest Grove I & II,"LITTLE DIXIE COMMUNITY ACTION AGENCY, INC
104 N E St
Hugo, OK 74743-3218
(580)326-7581
",Head Start,(580) 208-2228,1941 Forest Grove Road,Garvin,OK,74736,74736,,OK,McCurtain County
499,Haworth,"LITTLE DIXIE COMMUNITY ACTION AGENCY, INC
104 N E St
Hugo, OK 74743-3218
(580)326-7581
",Head Start,(580) 245-2403,HC 73 Box 48,Haworth,OK,74740-9500,74740,9500,OK,McCurtain County
500,Swink,"LITTLE DIXIE COMMUNITY ACTION AGENCY, INC
104 N E St
Hugo, OK 74743-3218
(580)326-7581
",Head Start,(580) 873-9399,500 Jourdan St,Swink,OK,74761,74761,,OK,Choctaw County
501,Antlers I & II,"LITTLE DIXIE COMMUNITY ACTION AGENCY, INC
104 N E St
Hugo, OK 74743-3218
(580)326-7581
",Head Start,(580) 298-2766,609 SW B St,Antlers,OK,74523-3830,74523,3830,OK,Pushmataha County
